{"country":"AD","name":"Andorra","name_zh":"安道尔","admin1s":{"03":{"name":"03","name_local":"03","cities":[{"id":"3040686","n":"Encamp","a":"Encamp","lat":42.5347,"lng":1.5801,"tz":"Europe/Andorra","p":11223},{"id":"3039604","n":"Pas de la Casa","a":"Pas de la Casa","lat":42.5428,"lng":1.7336,"tz":"Europe/Andorra","p":2363},{"id":"3038832","n":"Vila","a":"Vila","lat":42.5318,"lng":1.5665,"tz":"Europe/Andorra","p":1418}]},"02":{"name":"02","name_local":"02","cities":[{"id":"3041204","n":"Canillo","a":"Canillo","lat":42.5676,"lng":1.5976,"tz":"Europe/Andorra","p":3292},{"id":"3039154","n":"El Tarter","a":"El Tarter","lat":42.5795,"lng":1.6536,"tz":"Europe/Andorra","p":1052},{"id":"3038999","n":"Soldeu","a":"Soldeu","lat":42.5769,"lng":1.6677,"tz":"Europe/Andorra","p":602}]},"04":{"name":"04","name_local":"04","cities":[{"id":"3040132","n":"la Massana","a":"la Massana","lat":42.545,"lng":1.5148,"tz":"Europe/Andorra","p":7211},{"id":"3041519","n":"Arinsal","a":"Arinsal","lat":42.572,"lng":1.4845,"tz":"Europe/Andorra","p":1419},{"id":"3041543","n":"Anyós","a":"Anyos","lat":42.5346,"lng":1.5251,"tz":"Europe/Andorra","p":1006},{"id":"3039077","n":"Sispony","a":"Sispony","lat":42.5337,"lng":1.5161,"tz":"Europe/Andorra","p":833},{"id":"3040141","n":"l'Aldosa","a":"l'Aldosa","lat":42.5439,"lng":1.5229,"tz":"Europe/Andorra","p":594}]},"06":{"name":"06","name_local":"06","cities":[{"id":"3039163","n":"Sant Julià de Lòria","a":"Sant Julia de Loria","lat":42.4637,"lng":1.4913,"tz":"Europe/Andorra","p":8022},{"id":"3041604","n":"Aixirivall","a":"Aixirivall","lat":42.4624,"lng":1.5021,"tz":"Europe/Andorra","p":1041}]},"05":{"name":"05","name_local":"05","cities":[{"id":"3039678","n":"Ordino","a":"Ordino","lat":42.5562,"lng":1.5332,"tz":"Europe/Andorra","p":3066}]},"08":{"name":"08","name_local":"08","cities":[{"id":"3040051","n":"les Escaldes","a":"les Escaldes","lat":42.5073,"lng":1.5341,"tz":"Europe/Andorra","p":15853}]},"07":{"name":"07","name_local":"07","cities":[{"id":"3041563","n":"Andorra la Vella","a":"Andorra la Vella","lat":42.5078,"lng":1.5211,"tz":"Europe/Andorra","p":20430}]}}}