{"country":"AI","name":"AI","name_zh":"AI","admin1s":{"11205437":{"name":"11205437","name_local":"11205437","cities":[{"id":"3573364","n":"West End Village","a":"West End Village","lat":18.1719,"lng":-63.1494,"tz":"America/Anguilla","p":0}]},"11205396":{"name":"11205396","name_local":"11205396","cities":[{"id":"3573374","n":"The Valley","a":"The Valley","lat":18.217,"lng":-63.0578,"tz":"America/Anguilla","p":2035}]},"11205439":{"name":"11205439","name_local":"11205439","cities":[{"id":"3573375","n":"The Quarter","a":"The Quarter","lat":18.208,"lng":-63.0418,"tz":"America/Anguilla","p":0}]},"11205444":{"name":"11205444","name_local":"11205444","cities":[{"id":"3573378","n":"Farrington","a":"Farrington","lat":18.215,"lng":-63.0224,"tz":"America/Anguilla","p":0}]},"11205443":{"name":"11205443","name_local":"11205443","cities":[{"id":"3573380","n":"Stoney Ground","a":"Stoney Ground","lat":18.2203,"lng":-63.0461,"tz":"America/Anguilla","p":0}]},"11205438":{"name":"11205438","name_local":"11205438","cities":[{"id":"3573385","n":"South Hill Village","a":"South Hill Village","lat":18.192,"lng":-63.0878,"tz":"America/Anguilla","p":0}]},"11205392":{"name":"11205392","name_local":"11205392","cities":[{"id":"3573407","n":"Sandy Ground Village","a":"Sandy Ground Village","lat":18.2012,"lng":-63.09,"tz":"America/Anguilla","p":274}]},"11205440":{"name":"11205440","name_local":"11205440","cities":[{"id":"3573418","n":"North Side","a":"North Side","lat":18.2292,"lng":-63.044,"tz":"America/Anguilla","p":0}]},"11205436":{"name":"11205436","name_local":"11205436","cities":[{"id":"3573420","n":"North Hill Village","a":"North Hill Village","lat":18.2054,"lng":-63.0785,"tz":"America/Anguilla","p":0}]},"11205441":{"name":"11205441","name_local":"11205441","cities":[{"id":"3573456","n":"Island Harbour","a":"Island Harbour","lat":18.256,"lng":-63.0102,"tz":"America/Anguilla","p":0}]},"11205442":{"name":"11205442","name_local":"11205442","cities":[{"id":"3573466","n":"George Hill","a":"George Hill","lat":18.1994,"lng":-63.0665,"tz":"America/Anguilla","p":0}]},"11205433":{"name":"11205433","name_local":"11205433","cities":[{"id":"3573473","n":"East End Village","a":"East End Village","lat":18.2333,"lng":-63.0,"tz":"America/Anguilla","p":671}]},"11205389":{"name":"11205389","name_local":"11205389","cities":[{"id":"3573496","n":"Blowing Point Village","a":"Blowing Point Village","lat":18.1765,"lng":-63.0938,"tz":"America/Anguilla","p":942}]},"11205393":{"name":"11205393","name_local":"11205393","cities":[{"id":"11205445","n":"Sandy Hill","a":"Sandy Hill","lat":18.221,"lng":-63.0133,"tz":"America/Anguilla","p":879}]}}}