{"country":"BB","name":"Barbados","name_zh":"巴巴多斯","admin1s":{"02":{"name":"02","name_local":"02","cities":[{"id":"3373419","n":"White Hill","a":"White Hill","lat":13.2137,"lng":-59.5811,"tz":"America/Barbados","p":5139},{"id":"3373831","n":"Greenland","a":"Greenland","lat":13.2581,"lng":-59.5776,"tz":"America/Barbados","p":623}]},"11":{"name":"11","name_local":"11","cities":[{"id":"3373430","n":"Welchman Hall","a":"Welchman Hall","lat":13.1868,"lng":-59.5766,"tz":"America/Barbados","p":0}]},"10":{"name":"10","name_local":"10","cities":[{"id":"3373477","n":"Crane","a":"Crane","lat":13.1049,"lng":-59.4486,"tz":"America/Barbados","p":935}]},"09":{"name":"09","name_local":"09","cities":[{"id":"3373505","n":"Speightstown","a":"Speightstown","lat":13.2507,"lng":-59.644,"tz":"America/Barbados","p":3634}]},"01":{"name":"01","name_local":"01","cities":[{"id":"3373652","n":"Oistins","a":"Oistins","lat":13.0707,"lng":-59.5464,"tz":"America/Barbados","p":2285},{"id":"3373805","n":"Hastings","a":"Hastings","lat":13.0751,"lng":-59.5969,"tz":"America/Barbados","p":1500},{"id":"3373515","n":"Six Cross Roads","a":"Six Cross Roads","lat":13.1177,"lng":-59.477,"tz":"America/Barbados","p":1005}]},"04":{"name":"04","name_local":"04","cities":[{"id":"3373790","n":"Holetown","a":"Holetown","lat":13.1867,"lng":-59.6381,"tz":"America/Barbados","p":1350}]},"05":{"name":"05","name_local":"05","cities":[{"id":"3373877","n":"Four Cross Roads","a":"Four Cross Roads","lat":13.1702,"lng":-59.5219,"tz":"America/Barbados","p":0}]},"07":{"name":"07","name_local":"07","cities":[{"id":"3373942","n":"Crab Hill","a":"Crab Hill","lat":13.3196,"lng":-59.6383,"tz":"America/Barbados","p":727},{"id":"3373993","n":"Checker Hall","a":"Checker Hall","lat":13.2844,"lng":-59.6422,"tz":"America/Barbados","p":0}]},"08":{"name":"08","name_local":"08","cities":[{"id":"3374036","n":"Bridgetown","a":"Bridgetown","lat":13.1073,"lng":-59.6202,"tz":"America/Barbados","p":98511}]},"06":{"name":"06","name_local":"06","cities":[{"id":"3374083","n":"Bathsheba","a":"Bathsheba","lat":13.2113,"lng":-59.526,"tz":"America/Barbados","p":1765},{"id":"3374056","n":"Blackmans","a":"Blackmans","lat":13.185,"lng":-59.5452,"tz":"America/Barbados","p":623}]}}}