{"country":"BI","name":"Burundi","name_zh":"布隆迪","admin1s":{"17":{"name":"17","name_local":"17","cities":[{"id":"422232","n":"Makamba","a":"Makamba","lat":-4.1348,"lng":29.804,"tz":"Africa/Bujumbura","p":14539},{"id":"422357","n":"Kayogoro","a":"Kayogoro","lat":-4.2298,"lng":29.7662,"tz":"Africa/Bujumbura","p":5474},{"id":"421722","n":"Mabanda","a":"Mabanda","lat":-4.2743,"lng":29.7749,"tz":"Africa/Bujumbura","p":5027}]},"10":{"name":"10","name_local":"10","cities":[{"id":"421930","n":"Vyanda","a":"Vyanda","lat":-4.1024,"lng":29.606,"tz":"Africa/Bujumbura","p":29685},{"id":"423328","n":"Bururi","a":"Bururi","lat":-3.9488,"lng":29.6244,"tz":"Africa/Bujumbura","p":6929},{"id":"423038","n":"Matana","a":"Matana","lat":-3.7666,"lng":29.683,"tz":"Africa/Bujumbura","p":3178}]},"26":{"name":"26","name_local":"26","cities":[{"id":"423549","n":"Rumonge","a":"Rumonge","lat":-3.9736,"lng":29.4386,"tz":"Africa/Bujumbura","p":55599}]},"25":{"name":"25","name_local":"25","cities":[{"id":"425309","n":"Gatumba","a":"Gatumba","lat":-3.3333,"lng":29.25,"tz":"Africa/Bujumbura","p":18104},{"id":"425336","n":"Isale","a":"Isale","lat":-3.3489,"lng":29.4839,"tz":"Africa/Bujumbura","p":7701},{"id":"425418","n":"Kanyosha","a":"Kanyosha","lat":-3.4148,"lng":29.4082,"tz":"Africa/Bujumbura","p":6610},{"id":"425897","n":"Mugongomanga","a":"Mugongomanga","lat":-3.4693,"lng":29.5451,"tz":"Africa/Bujumbura","p":3227},{"id":"423566","n":"Manga","a":"Manga","lat":-3.5086,"lng":29.469,"tz":"Africa/Bujumbura","p":1000}]},"23":{"name":"23","name_local":"23","cities":[{"id":"423794","n":"Mwaro","a":"Mwaro","lat":-3.5113,"lng":29.7033,"tz":"Africa/Bujumbura","p":3718}]},"09":{"name":"09","name_local":"09","cities":[{"id":"428515","n":"Bubanza","a":"Bubanza","lat":-3.0804,"lng":29.391,"tz":"Africa/Bujumbura","p":30996},{"id":"425236","n":"Muzinda","a":"Muzinda","lat":-3.2617,"lng":29.4206,"tz":"Africa/Bujumbura","p":0}]},"24":{"name":"24","name_local":"24","cities":[{"id":"425378","n":"Bujumbura","a":"Bujumbura","lat":-3.3819,"lng":29.3614,"tz":"Africa/Bujumbura","p":769317}]},"13":{"name":"13","name_local":"13","cities":[{"id":"426272","n":"Gitega","a":"Gitega","lat":-3.4271,"lng":29.9246,"tz":"Africa/Bujumbura","p":64904},{"id":"425551","n":"Muramvya","a":"Muramvya","lat":-3.2678,"lng":29.6162,"tz":"Africa/Bujumbura","p":8445}]},"14":{"name":"14","name_local":"14","cities":[{"id":"426423","n":"Zanandore","a":"Zanandore","lat":-3.2548,"lng":30.114,"tz":"Africa/Bujumbura","p":27867},{"id":"428219","n":"Karuzi","a":"Karuzi","lat":-3.1014,"lng":30.1628,"tz":"Africa/Bujumbura","p":15964}]},"21":{"name":"21","name_local":"21","cities":[{"id":"426700","n":"Ruyigi","a":"Ruyigi","lat":-3.4764,"lng":30.2486,"tz":"Africa/Bujumbura","p":11046}]},"11":{"name":"11","name_local":"11","cities":[{"id":"427701","n":"Cankuzo","a":"Cankuzo","lat":-3.2186,"lng":30.5528,"tz":"Africa/Bujumbura","p":5607}]},"12":{"name":"12","name_local":"12","cities":[{"id":"430021","n":"Cibitoke","a":"Cibitoke","lat":-2.8869,"lng":29.1248,"tz":"Africa/Bujumbura","p":36959},{"id":"430086","n":"Buganda","a":"Buganda","lat":-2.9663,"lng":29.1944,"tz":"Africa/Bujumbura","p":0}]},"19":{"name":"19","name_local":"19","cities":[{"id":"430569","n":"Ngozi","a":"Ngozi","lat":-2.9075,"lng":29.8306,"tz":"Africa/Bujumbura","p":61716}]},"15":{"name":"15","name_local":"15","cities":[{"id":"430952","n":"Kayanza","a":"Kayanza","lat":-2.9221,"lng":29.6293,"tz":"Africa/Bujumbura","p":33682}]},"16":{"name":"16","name_local":"16","cities":[{"id":"432456","n":"Kirundo","a":"Kirundo","lat":-2.5845,"lng":30.0959,"tz":"Africa/Bujumbura","p":15511},{"id":"431417","n":"Bwambarangwe","a":"Bwambarangwe","lat":-2.5831,"lng":30.3328,"tz":"Africa/Bujumbura","p":6257}]},"18":{"name":"18","name_local":"18","cities":[{"id":"431748","n":"Muyinga","a":"Muyinga","lat":-2.8451,"lng":30.3414,"tz":"Africa/Bujumbura","p":14869},{"id":"447830","n":"Giteranyi","a":"Giteranyi","lat":-2.4842,"lng":30.465,"tz":"Africa/Bujumbura","p":3320}]},"20":{"name":"20","name_local":"20","cities":[{"id":"433635","n":"Rutana","a":"Rutana","lat":-3.9279,"lng":29.992,"tz":"Africa/Bujumbura","p":9075}]}}}