{"country":"BM","name":"BM","name_zh":"BM","admin1s":{"08":{"name":"08","name_local":"08","cities":[{"id":"13353871","n":"Sandys Parish","a":"Sandys Parish","lat":32.2964,"lng":-64.8693,"tz":"Atlantic/Bermuda","p":7653},{"id":"3573029","n":"Somerset","a":"Somerset","lat":32.2983,"lng":-64.8683,"tz":"Atlantic/Bermuda","p":1000}]},"06":{"name":"06","name_local":"06","cities":[{"id":"3573061","n":"Saint George","a":"Saint George","lat":32.3817,"lng":-64.6781,"tz":"Atlantic/Bermuda","p":1896}]},"03":{"name":"03","name_local":"03","cities":[{"id":"3573197","n":"Hamilton","a":"Hamilton","lat":32.2949,"lng":-64.783,"tz":"Atlantic/Bermuda","p":902}]},"05":{"name":"05","name_local":"05","cities":[{"id":"8533871","n":"Pembroke Parish","a":"Pembroke Parish","lat":32.3002,"lng":-64.792,"tz":"Atlantic/Bermuda","p":11160}]},"01":{"name":"01","name_local":"01","cities":[{"id":"13353864","n":"Devonshire Parish","a":"Devonshire Parish","lat":32.3058,"lng":-64.7575,"tz":"Atlantic/Bermuda","p":7330}]},"09":{"name":"09","name_local":"09","cities":[{"id":"13353865","n":"Smith's Parish","a":"Smith's Parish","lat":32.3139,"lng":-64.739,"tz":"Atlantic/Bermuda","p":5406}]},"02":{"name":"02","name_local":"02","cities":[{"id":"13353866","n":"Hamilton Parish","a":"Hamilton Parish","lat":32.3422,"lng":-64.7302,"tz":"Atlantic/Bermuda","p":5862}]},"07":{"name":"07","name_local":"07","cities":[{"id":"13353867","n":"St George's Parish","a":"St George's Parish","lat":32.3725,"lng":-64.6976,"tz":"Atlantic/Bermuda","p":5659}]},"04":{"name":"04","name_local":"04","cities":[{"id":"13353868","n":"Paget Parish","a":"Paget Parish","lat":32.2802,"lng":-64.7833,"tz":"Atlantic/Bermuda","p":5702}]},"11":{"name":"11","name_local":"11","cities":[{"id":"13353869","n":"Warwick Parish","a":"Warwick Parish","lat":32.2657,"lng":-64.8092,"tz":"Atlantic/Bermuda","p":8615}]},"10":{"name":"10","name_local":"10","cities":[{"id":"13353870","n":"Southampton Parish","a":"Southampton Parish","lat":32.2516,"lng":-64.8547,"tz":"Atlantic/Bermuda","p":6633}]}}}