{"country":"BS","name":"Bahamas","name_zh":"巴哈马","admin1s":{"54":{"name":"54","name_local":"54","cities":[{"id":"3571224","n":"West End","a":"West End","lat":26.6871,"lng":-78.977,"tz":"America/Nassau","p":12724}]},"53":{"name":"53","name_local":"53","cities":[{"id":"3571375","n":"Spanish Wells","a":"Spanish Wells","lat":25.5472,"lng":-76.764,"tz":"America/Nassau","p":1500}]},"47":{"name":"47","name_local":"47","cities":[{"id":"3571523","n":"San Andros","a":"San Andros","lat":25.0667,"lng":-78.05,"tz":"America/Nassau","p":7800},{"id":"3572906","n":"Andros Town","a":"Andros Town","lat":24.705,"lng":-77.7691,"tz":"America/Nassau","p":2455}]},"49":{"name":"49","name_local":"49","cities":[{"id":"3571650","n":"Port Nelson","a":"Port Nelson","lat":23.6497,"lng":-74.8416,"tz":"America/Nassau","p":91}]},"23":{"name":"23","name_local":"23","cities":[{"id":"3571824","n":"Nassau","a":"Nassau","lat":25.0582,"lng":-77.3431,"tz":"America/Nassau","p":227940},{"id":"3572106","n":"Killarney","a":"Killarney","lat":25.05,"lng":-77.4167,"tz":"America/Nassau","p":17679}]},"13":{"name":"13","name_local":"13","cities":[{"id":"3571898","n":"Matthew Town","a":"Matthew Town","lat":20.9498,"lng":-73.6735,"tz":"America/Nassau","p":452}]},"24":{"name":"24","name_local":"24","cities":[{"id":"3571908","n":"Masons Bay","a":"Masons Bay","lat":22.5435,"lng":-73.8778,"tz":"America/Nassau","p":0}]},"37":{"name":"37","name_local":"37","cities":[{"id":"3571913","n":"Marsh Harbour","a":"Marsh Harbour","lat":26.5412,"lng":-77.0636,"tz":"America/Nassau","p":5314}]},"25":{"name":"25","name_local":"25","cities":[{"id":"3571971","n":"Lucaya","a":"Lucaya","lat":26.5333,"lng":-78.6667,"tz":"America/Nassau","p":46525},{"id":"3572375","n":"Freeport","a":"Freeport","lat":26.5333,"lng":-78.7,"tz":"America/Nassau","p":26910}]},"41":{"name":"41","name_local":"41","cities":[{"id":"3572189","n":"High Rock","a":"High Rock","lat":26.6265,"lng":-78.2821,"tz":"America/Nassau","p":3744}]},"45":{"name":"45","name_local":"45","cities":[{"id":"3572233","n":"Hard Bargain","a":"Hard Bargain","lat":26.3167,"lng":-77.5667,"tz":"America/Nassau","p":0}]},"39":{"name":"39","name_local":"39","cities":[{"id":"3572313","n":"Governor’s Harbour","a":"Governor's Harbour","lat":25.1667,"lng":-76.2333,"tz":"America/Nassau","p":0}]},"10":{"name":"10","name_local":"10","cities":[{"id":"3572349","n":"George Town","a":"George Town","lat":23.5162,"lng":-75.7866,"tz":"America/Nassau","p":7314}]},"22":{"name":"22","name_local":"22","cities":[{"id":"3572462","n":"Dunmore Town","a":"Dunmore Town","lat":25.5022,"lng":-76.6363,"tz":"America/Nassau","p":1523}]},"18":{"name":"18","name_local":"18","cities":[{"id":"3572467","n":"Duncan Town","a":"Duncan Town","lat":22.1908,"lng":-75.7258,"tz":"America/Nassau","p":70}]},"46":{"name":"46","name_local":"46","cities":[{"id":"3572601","n":"Cooper’s Town","a":"Cooper's Town","lat":26.8714,"lng":-77.5113,"tz":"America/Nassau","p":8413},{"id":"7535668","n":"Treasure Cay","a":"Treasure Cay","lat":26.6769,"lng":-77.2858,"tz":"America/Nassau","p":1187}]},"40":{"name":"40","name_local":"40","cities":[{"id":"3572620","n":"Colonel Hill","a":"Colonel Hill","lat":22.7545,"lng":-74.2041,"tz":"America/Nassau","p":240}]},"35":{"name":"35","name_local":"35","cities":[{"id":"3572627","n":"Cockburn Town","a":"Cockburn Town","lat":24.0518,"lng":-74.5314,"tz":"America/Nassau","p":831}]},"15":{"name":"15","name_local":"15","cities":[{"id":"3572640","n":"Clarence Town","a":"Clarence Town","lat":23.1,"lng":-74.9833,"tz":"America/Nassau","p":1752}]},"36":{"name":"36","name_local":"36","cities":[{"id":"3572796","n":"Black Point","a":"Black Point","lat":24.1,"lng":-76.3833,"tz":"America/Nassau","p":0}]},"06":{"name":"06","name_local":"06","cities":[{"id":"3572897","n":"Arthur’s Town","a":"Arthur's Town","lat":24.6224,"lng":-75.6715,"tz":"America/Nassau","p":1175}]},"05":{"name":"05","name_local":"05","cities":[{"id":"3572924","n":"Alice Town","a":"Alice Town","lat":25.728,"lng":-79.2972,"tz":"America/Nassau","p":949}]},"16":{"name":"16","name_local":"16","cities":[{"id":"3572940","n":"Abraham’s Bay","a":"Abraham's Bay","lat":22.3667,"lng":-72.9667,"tz":"America/Nassau","p":235}]},"52":{"name":"52","name_local":"52","cities":[{"id":"10793775","n":"Freetown","a":"Freetown","lat":24.7789,"lng":-76.2771,"tz":"America/Nassau","p":3137}]}}}