{"country":"BT","name":"Bhutan","name_zh":"不丹","admin1s":{"22":{"name":"22","name_local":"22","cities":[{"id":"1252395","n":"Wangdue Phodrang","a":"Wangdue Phodrang","lat":27.4861,"lng":89.8992,"tz":"Asia/Thimphu","p":8954}]},"21":{"name":"21","name_local":"21","cities":[{"id":"1252408","n":"Trongsa","a":"Trongsa","lat":27.5026,"lng":90.5072,"tz":"Asia/Thimphu","p":2805}]},"20":{"name":"20","name_local":"20","cities":[{"id":"1252416","n":"Thimphu","a":"Thimphu","lat":27.4661,"lng":89.6419,"tz":"Asia/Thimphu","p":98676},{"id":"10172752","n":"Lungtenzampa","a":"Lungtenzampa","lat":27.4682,"lng":89.6444,"tz":"Asia/Thimphu","p":0}]},"24":{"name":"24","name_local":"24","cities":[{"id":"1252422","n":"Trashi Yangtse","a":"Trashi Yangtse","lat":27.6116,"lng":91.498,"tz":"Asia/Thimphu","p":3025}]},"19":{"name":"19","name_local":"19","cities":[{"id":"1252423","n":"Trashigang","a":"Trashigang","lat":27.3331,"lng":91.5542,"tz":"Asia/Thimphu","p":872}]},"08":{"name":"08","name_local":"08","cities":[{"id":"1252433","n":"Daga","a":"Daga","lat":27.0753,"lng":89.8769,"tz":"Asia/Thimphu","p":2243}]},"18":{"name":"18","name_local":"18","cities":[{"id":"1337356","n":"Panbang","a":"Panbang","lat":26.8667,"lng":90.9833,"tz":"Asia/Thimphu","p":1360},{"id":"1252451","n":"Shemgang","a":"Shemgang","lat":27.2169,"lng":90.6579,"tz":"Asia/Thimphu","p":852}]},"09":{"name":"09","name_local":"09","cities":[{"id":"1252460","n":"Sarpang","a":"Sarpang","lat":26.8639,"lng":90.2674,"tz":"Asia/Thimphu","p":10416},{"id":"1252560","n":"Geylegphug","a":"Geylegphug","lat":26.8683,"lng":90.4878,"tz":"Asia/Thimphu","p":9858}]},"15":{"name":"15","name_local":"15","cities":[{"id":"1252479","n":"Punākha","a":"Punakha","lat":27.5914,"lng":89.8774,"tz":"Asia/Thimphu","p":21500},{"id":"1252495","n":"Pajo","a":"Pajo","lat":27.5333,"lng":89.8833,"tz":"Asia/Thimphu","p":3032}]},"06":{"name":"06","name_local":"06","cities":[{"id":"1252484","n":"Phuntsholing","a":"Phuntsholing","lat":26.8516,"lng":89.3884,"tz":"Asia/Thimphu","p":27658},{"id":"1252610","n":"Tsimasham","a":"Tsimasham","lat":27.0989,"lng":89.536,"tz":"Asia/Thimphu","p":2855},{"id":"11101594","n":"Mebisa","a":"Mebisa","lat":27.0627,"lng":89.5605,"tz":"Asia/Thimphu","p":2855},{"id":"1252601","n":"Daphu","a":"Daphu","lat":26.9667,"lng":89.3833,"tz":"Asia/Thimphu","p":1666}]},"13":{"name":"13","name_local":"13","cities":[{"id":"1252490","n":"Paro","a":"Paro","lat":27.4305,"lng":89.4133,"tz":"Asia/Thimphu","p":11448}]},"12":{"name":"12","name_local":"12","cities":[{"id":"1252514","n":"Mongar","a":"Mongar","lat":27.2747,"lng":91.2396,"tz":"Asia/Thimphu","p":2969}]},"11":{"name":"11","name_local":"11","cities":[{"id":"1252526","n":"Lhuentse","a":"Lhuentse","lat":27.6679,"lng":91.1839,"tz":"Asia/Thimphu","p":100}]},"10":{"name":"10","name_local":"10","cities":[{"id":"1252563","n":"Ha","a":"Ha","lat":27.3875,"lng":89.2807,"tz":"Asia/Thimphu","p":1449}]},"23":{"name":"23","name_local":"23","cities":[{"id":"1337389","n":"Laya","a":"Laya","lat":28.0613,"lng":89.6826,"tz":"Asia/Thimphu","p":2000},{"id":"1252578","n":"Gasa","a":"Gasa","lat":27.9037,"lng":89.7269,"tz":"Asia/Thimphu","p":548}]},"07":{"name":"07","name_local":"07","cities":[{"id":"1252608","n":"Tsirang","a":"Tsirang","lat":27.0219,"lng":90.1229,"tz":"Asia/Thimphu","p":22376}]},"05":{"name":"05","name_local":"05","cities":[{"id":"1337301","n":"Jakar","a":"Jakar","lat":27.5492,"lng":90.7525,"tz":"Asia/Thimphu","p":6243}]},"17":{"name":"17","name_local":"17","cities":[{"id":"1337388","n":"Samdrup Jongkhar","a":"Samdrup Jongkhar","lat":26.8007,"lng":91.5052,"tz":"Asia/Thimphu","p":9325},{"id":"1337357","n":"Nganglam","a":"Nganglam","lat":26.7833,"lng":91.25,"tz":"Asia/Thimphu","p":707},{"id":"1337386","n":"Daifam","a":"Daifam","lat":26.9,"lng":92.1,"tz":"Asia/Thimphu","p":662},{"id":"1337387","n":"Bhangtar","a":"Bhangtar","lat":26.8167,"lng":91.7167,"tz":"Asia/Thimphu","p":656}]},"16":{"name":"16","name_local":"16","cities":[{"id":"1337360","n":"Samtse","a":"Samtse","lat":26.899,"lng":89.0995,"tz":"Asia/Thimphu","p":5396}]},"14":{"name":"14","name_local":"14","cities":[{"id":"1337379","n":"Pemagatshel","a":"Pemagatshel","lat":27.0379,"lng":91.403,"tz":"Asia/Thimphu","p":13864}]}}}