{"country":"CF","name":"Central African Republic","name_zh":"中非","admin1s":{"05":{"name":"05","name_local":"05","cities":[{"id":"235826","n":"Zemio","a":"Zemio","lat":5.0314,"lng":25.1361,"tz":"Africa/Bangui","p":17829},{"id":"236950","n":"Obo","a":"Obo","lat":5.3959,"lng":26.4921,"tz":"Africa/Bangui","p":14402}]},"08":{"name":"08","name_local":"08","cities":[{"id":"240498","n":"Bangassou","a":"Bangassou","lat":4.7413,"lng":22.8184,"tz":"Africa/Bangui","p":54059},{"id":"239300","n":"Gambo","a":"Gambo","lat":4.6482,"lng":22.2633,"tz":"Africa/Bangui","p":4971},{"id":"236844","n":"Ouango","a":"Ouango","lat":4.3133,"lng":22.5552,"tz":"Africa/Bangui","p":4365}]},"14":{"name":"14","name_local":"14","cities":[{"id":"240210","n":"Birao","a":"Birao","lat":10.2849,"lng":22.7882,"tz":"Africa/Bangui","p":8457},{"id":"236863","n":"Ouanda Djallé","a":"Ouanda Djalle","lat":8.9002,"lng":22.8028,"tz":"Africa/Bangui","p":2839}]},"03":{"name":"03","name_local":"03","cities":[{"id":"239899","n":"Bria","a":"Bria","lat":6.5423,"lng":21.9863,"tz":"Africa/Bangui","p":47226},{"id":"236901","n":"Ouadda","a":"Ouadda","lat":8.0777,"lng":22.4007,"tz":"Africa/Bangui","p":5434}]},"01":{"name":"01","name_local":"01","cities":[{"id":"237379","n":"Ndélé","a":"Ndele","lat":8.4109,"lng":20.6473,"tz":"Africa/Bangui","p":27071}]},"02":{"name":"02","name_local":"02","cities":[{"id":"240999","n":"Alindao","a":"Alindao","lat":5.0267,"lng":21.2088,"tz":"Africa/Bangui","p":32588},{"id":"238373","n":"Kembé","a":"Kembe","lat":4.6227,"lng":21.8864,"tz":"Africa/Bangui","p":7317},{"id":"237478","n":"Mobaye","a":"Mobaye","lat":4.319,"lng":21.1786,"tz":"Africa/Bangui","p":7179}]},"11":{"name":"11","name_local":"11","cities":[{"id":"240604","n":"Bambari","a":"Bambari","lat":5.7679,"lng":20.6757,"tz":"Africa/Bangui","p":83029},{"id":"2385535","n":"Kouango","a":"Kouango","lat":4.9934,"lng":19.9619,"tz":"Africa/Bangui","p":36575},{"id":"238566","n":"Ippy","a":"Ippy","lat":6.2679,"lng":21.2247,"tz":"Africa/Bangui","p":28319},{"id":"238714","n":"Grimari","a":"Grimari","lat":5.7395,"lng":20.0556,"tz":"Africa/Bangui","p":14941}]},"17":{"name":"17","name_local":"17","cities":[{"id":"2388873","n":"Bimbo","a":"Bimbo","lat":4.2567,"lng":18.4158,"tz":"Africa/Bangui","p":348802},{"id":"2389422","n":"Bégoua","a":"Begoua","lat":4.4544,"lng":18.5347,"tz":"Africa/Bangui","p":264067},{"id":"2382505","n":"Yaloké","a":"Yaloke","lat":5.3195,"lng":17.1011,"tz":"Africa/Bangui","p":21710},{"id":"2388720","n":"Boali","a":"Boali","lat":4.8005,"lng":18.1275,"tz":"Africa/Bangui","p":18090},{"id":"2388025","n":"Bossembélé","a":"Bossembele","lat":5.2667,"lng":17.65,"tz":"Africa/Bangui","p":17203},{"id":"2387435","n":"Damara","a":"Damara","lat":4.9607,"lng":18.7035,"tz":"Africa/Bangui","p":9117}]},"06":{"name":"06","name_local":"06","cities":[{"id":"2383119","n":"Sibut","a":"Sibut","lat":5.718,"lng":19.0739,"tz":"Africa/Bangui","p":31986},{"id":"2387319","n":"Dekoa","a":"Dekoa","lat":6.3223,"lng":19.0792,"tz":"Africa/Bangui","p":19639}]},"21":{"name":"21","name_local":"21","cities":[{"id":"2383523","n":"Paoua","a":"Paoua","lat":7.2427,"lng":16.4406,"tz":"Africa/Bangui","p":47703}]},"16":{"name":"16","name_local":"16","cities":[{"id":"2383827","n":"Nola","a":"Nola","lat":3.5249,"lng":16.0458,"tz":"Africa/Bangui","p":31923},{"id":"2389614","n":"Bayanga","a":"Bayanga","lat":2.905,"lng":16.2603,"tz":"Africa/Bangui","p":8920}]},"07":{"name":"07","name_local":"07","cities":[{"id":"2384770","n":"Mbaïki","a":"Mbaiki","lat":3.8678,"lng":17.9892,"tz":"Africa/Bangui","p":21867},{"id":"2388693","n":"Bobangui","a":"Bobangui","lat":4.05,"lng":18.1167,"tz":"Africa/Bangui","p":16486},{"id":"2388614","n":"Boda","a":"Boda","lat":4.3189,"lng":17.4695,"tz":"Africa/Bangui","p":11688},{"id":"2384377","n":"Mongoumba","a":"Mongoumba","lat":3.6415,"lng":18.5936,"tz":"Africa/Bangui","p":9985}]},"15":{"name":"15","name_local":"15","cities":[{"id":"2386012","n":"Kaga-Bandoro","a":"Kaga-Bandoro","lat":6.9896,"lng":19.1874,"tz":"Africa/Bangui","p":55047},{"id":"2384574","n":"Mbrés","a":"Mbres","lat":6.668,"lng":19.8032,"tz":"Africa/Bangui","p":10269}]},"20":{"name":"20","name_local":"20","cities":[{"id":"2389691","n":"Batangafo","a":"Batangafo","lat":7.3008,"lng":18.2833,"tz":"Africa/Bangui","p":24119},{"id":"2387890","n":"Bouca","a":"Bouca","lat":6.5073,"lng":18.2767,"tz":"Africa/Bangui","p":19320},{"id":"2386042","n":"Kabo","a":"Kabo","lat":7.6994,"lng":18.629,"tz":"Africa/Bangui","p":16279}]},"04":{"name":"04","name_local":"04","cities":[{"id":"2389086","n":"Berbérati","a":"Berberati","lat":4.2612,"lng":15.7922,"tz":"Africa/Bangui","p":103713},{"id":"2386756","n":"Gamboula","a":"Gamboula","lat":4.1178,"lng":15.1393,"tz":"Africa/Bangui","p":13048}]},"19":{"name":"19","name_local":"19","cities":[{"id":"2387495","n":"Carnot","a":"Carnot","lat":4.9427,"lng":15.8773,"tz":"Africa/Bangui","p":129032}]},"13":{"name":"13","name_local":"13","cities":[{"id":"2388625","n":"Bocaranga","a":"Bocaranga","lat":6.9853,"lng":15.6406,"tz":"Africa/Bangui","p":36418},{"id":"2387546","n":"Bozoum","a":"Bozoum","lat":6.3193,"lng":16.3799,"tz":"Africa/Bangui","p":20665},{"id":"2388018","n":"Bossemtele I","a":"Bossemtele I","lat":5.7969,"lng":16.5179,"tz":"Africa/Bangui","p":11136}]},"09":{"name":"09","name_local":"09","cities":[{"id":"2387926","n":"Bouar","a":"Bouar","lat":5.934,"lng":15.596,"tz":"Africa/Bangui","p":71680},{"id":"2390513","n":"Baboua","a":"Baboua","lat":5.7957,"lng":14.828,"tz":"Africa/Bangui","p":33739},{"id":"2389804","n":"Baoro","a":"Baoro","lat":5.6667,"lng":15.9667,"tz":"Africa/Bangui","p":18089}]},"12":{"name":"12","name_local":"12","cities":[{"id":"2388036","n":"Bossangoa","a":"Bossangoa","lat":6.4926,"lng":17.4552,"tz":"Africa/Bangui","p":55353}]},"18":{"name":"18","name_local":"18","cities":[{"id":"2389853","n":"Bangui","a":"Bangui","lat":4.3612,"lng":18.555,"tz":"Africa/Bangui","p":812407}]}}}