{"country":"CV","name":"Cape Verde","name_zh":"佛得角","admin1s":{"02":{"name":"02","name_local":"02","cities":[{"id":"3374117","n":"Nova Sintra","a":"Nova Sintra","lat":14.8714,"lng":-24.6956,"tz":"Atlantic/Cape_Verde","p":2225}]},"04":{"name":"04","name_local":"04","cities":[{"id":"3374120","n":"Vila do Maio","a":"Vila do Maio","lat":15.1382,"lng":-23.2116,"tz":"Atlantic/Cape_Verde","p":4472}]},"22":{"name":"22","name_local":"22","cities":[{"id":"3374121","n":"Ribeira Brava","a":"Ribeira Brava","lat":16.6158,"lng":-24.2983,"tz":"Atlantic/Cape_Verde","p":2851}]},"27":{"name":"27","name_local":"27","cities":[{"id":"3374165","n":"Tarrafal de São Nicolau","a":"Tarrafal de Sao Nicolau","lat":16.5662,"lng":-24.3579,"tz":"Atlantic/Cape_Verde","p":4371}]},"20":{"name":"20","name_local":"20","cities":[{"id":"3374166","n":"Tarrafal","a":"Tarrafal","lat":15.2788,"lng":-23.7519,"tz":"Atlantic/Cape_Verde","p":13483}]},"18":{"name":"18","name_local":"18","cities":[{"id":"3374210","n":"São Filipe","a":"Sao Filipe","lat":14.8961,"lng":-24.4956,"tz":"Atlantic/Cape_Verde","p":10097}]},"17":{"name":"17","name_local":"17","cities":[{"id":"3374211","n":"São Domingos","a":"Sao Domingos","lat":15.0244,"lng":-23.5625,"tz":"Atlantic/Cape_Verde","p":2960}]},"08":{"name":"08","name_local":"08","cities":[{"id":"8521418","n":"Espargos","a":"Espargos","lat":16.7552,"lng":-22.9446,"tz":"Atlantic/Cape_Verde","p":24500},{"id":"3374218","n":"Santa Maria","a":"Santa Maria","lat":16.598,"lng":-22.9051,"tz":"Atlantic/Cape_Verde","p":8400}]},"16":{"name":"16","name_local":"16","cities":[{"id":"8441169","n":"Pedra Badejo","a":"Pedra Badejo","lat":15.1375,"lng":-23.5308,"tz":"Atlantic/Cape_Verde","p":10038},{"id":"3374221","n":"Santa Cruz","a":"Santa Cruz","lat":15.134,"lng":-23.5594,"tz":"Atlantic/Cape_Verde","p":9488}]},"01":{"name":"01","name_local":"01","cities":[{"id":"3374235","n":"Sal Rei","a":"Sal Rei","lat":16.1761,"lng":-22.9172,"tz":"Atlantic/Cape_Verde","p":10936}]},"07":{"name":"07","name_local":"07","cities":[{"id":"3374346","n":"Ponta do Sol","a":"Ponta do Sol","lat":17.2017,"lng":-25.0922,"tz":"Atlantic/Cape_Verde","p":3300},{"id":"3374275","n":"Ribeira Grande","a":"Ribeira Grande","lat":17.1825,"lng":-25.065,"tz":"Atlantic/Cape_Verde","p":3000}]},"14":{"name":"14","name_local":"14","cities":[{"id":"3374333","n":"Praia","a":"Praia","lat":14.9315,"lng":-23.5125,"tz":"Atlantic/Cape_Verde","p":137868}]},"21":{"name":"21","name_local":"21","cities":[{"id":"3374336","n":"Porto Novo","a":"Porto Novo","lat":17.0197,"lng":-25.0647,"tz":"Atlantic/Cape_Verde","p":11138}]},"05":{"name":"05","name_local":"05","cities":[{"id":"3374351","n":"Pombas","a":"Pombas","lat":17.1503,"lng":-25.0201,"tz":"Atlantic/Cape_Verde","p":1429}]},"26":{"name":"26","name_local":"26","cities":[{"id":"3374360","n":"Picos","a":"Picos","lat":15.0836,"lng":-23.6324,"tz":"Atlantic/Cape_Verde","p":2040}]},"11":{"name":"11","name_local":"11","cities":[{"id":"3374462","n":"Mindelo","a":"Mindelo","lat":16.8901,"lng":-24.9804,"tz":"Atlantic/Cape_Verde","p":69013}]},"13":{"name":"13","name_local":"13","cities":[{"id":"3374555","n":"Igreja","a":"Igreja","lat":15.0333,"lng":-24.3333,"tz":"Atlantic/Cape_Verde","p":4084}]},"24":{"name":"24","name_local":"24","cities":[{"id":"3374707","n":"Cova Figueira","a":"Cova Figueira","lat":14.8905,"lng":-24.2934,"tz":"Atlantic/Cape_Verde","p":720}]},"23":{"name":"23","name_local":"23","cities":[{"id":"3374725","n":"Cidade Velha","a":"Cidade Velha","lat":14.9153,"lng":-23.6053,"tz":"Atlantic/Cape_Verde","p":3319}]},"19":{"name":"19","name_local":"19","cities":[{"id":"3374794","n":"Calheta","a":"Calheta","lat":15.1861,"lng":-23.5923,"tz":"Atlantic/Cape_Verde","p":6329}]},"15":{"name":"15","name_local":"15","cities":[{"id":"3374888","n":"Assomada","a":"Assomada","lat":15.1,"lng":-23.6833,"tz":"Atlantic/Cape_Verde","p":21297}]},"25":{"name":"25","name_local":"25","cities":[{"id":"8441167","n":"João Teves","a":"Joao Teves","lat":15.0669,"lng":-23.5892,"tz":"Atlantic/Cape_Verde","p":627}]}}}