{"country":"DM","name":"Dominica","name_zh":"多米尼克","admin1s":{"02":{"name":"02","name_local":"02","cities":[{"id":"3575721","n":"Marigot","a":"Marigot","lat":15.5374,"lng":-61.282,"tz":"America/Dominica","p":2669},{"id":"3575568","n":"Wesley","a":"Wesley","lat":15.5667,"lng":-61.3167,"tz":"America/Dominica","p":1933},{"id":"3575565","n":"Woodford Hill","a":"Woodford Hill","lat":15.5809,"lng":-61.3315,"tz":"America/Dominica","p":1063},{"id":"3575882","n":"Calibishie","a":"Calibishie","lat":15.593,"lng":-61.349,"tz":"America/Dominica","p":1020},{"id":"3575573","n":"Vieille Case","a":"Vieille Case","lat":15.6142,"lng":-61.4082,"tz":"America/Dominica","p":726}]},"08":{"name":"08","name_local":"08","cities":[{"id":"3575602","n":"Soufrière","a":"Soufriere","lat":15.2337,"lng":-61.3588,"tz":"America/Dominica","p":1416}]},"06":{"name":"06","name_local":"06","cities":[{"id":"3575624","n":"Saint Joseph","a":"Saint Joseph","lat":15.4061,"lng":-61.4237,"tz":"America/Dominica","p":2184},{"id":"3575612","n":"Salisbury","a":"Salisbury","lat":15.4369,"lng":-61.4364,"tz":"America/Dominica","p":1413}]},"04":{"name":"04","name_local":"04","cities":[{"id":"3575635","n":"Roseau","a":"Roseau","lat":15.3017,"lng":-61.3881,"tz":"America/Dominica","p":16571},{"id":"10793753","n":"Castle Comfort","a":"Castle Comfort","lat":15.2844,"lng":-61.3705,"tz":"America/Dominica","p":790}]},"03":{"name":"03","name_local":"03","cities":[{"id":"3575870","n":"Castle Bruce","a":"Castle Bruce","lat":15.444,"lng":-61.2572,"tz":"America/Dominica","p":1387},{"id":"3575639","n":"Rosalie","a":"Rosalie","lat":15.3667,"lng":-61.2667,"tz":"America/Dominica","p":802}]},"05":{"name":"05","name_local":"05","cities":[{"id":"3575654","n":"Portsmouth","a":"Portsmouth","lat":15.5829,"lng":-61.4559,"tz":"America/Dominica","p":3633}]},"10":{"name":"10","name_local":"10","cities":[{"id":"3575733","n":"Mahaut","a":"Mahaut","lat":15.3636,"lng":-61.397,"tz":"America/Dominica","p":2369},{"id":"3575656","n":"Pont Cassé","a":"Pont Casse","lat":15.3667,"lng":-61.35,"tz":"America/Dominica","p":702}]},"07":{"name":"07","name_local":"07","cities":[{"id":"3575660","n":"Pointe Michel","a":"Pointe Michel","lat":15.2598,"lng":-61.3745,"tz":"America/Dominica","p":1202}]},"09":{"name":"09","name_local":"09","cities":[{"id":"3575899","n":"Berekua","a":"Berekua","lat":15.2333,"lng":-61.3167,"tz":"America/Dominica","p":2608},{"id":"3575755","n":"La Plaine","a":"La Plaine","lat":15.3277,"lng":-61.2475,"tz":"America/Dominica","p":1332}]},"11":{"name":"11","name_local":"11","cities":[{"id":"3575857","n":"Colihaut","a":"Colihaut","lat":15.4848,"lng":-61.4622,"tz":"America/Dominica","p":890}]}}}