{"country":"GD","name":"Grenada","name_zh":"格林纳达","admin1s":{"05":{"name":"05","name_local":"05","cities":[{"id":"3579833","n":"Victoria","a":"Victoria","lat":12.1902,"lng":-61.7068,"tz":"America/Grenada","p":2256}]},"06":{"name":"06","name_local":"06","cities":[{"id":"3579891","n":"Sauteurs","a":"Sauteurs","lat":12.2183,"lng":-61.6392,"tz":"America/Grenada","p":1320},{"id":"3579837","n":"Upper La Taste","a":"Upper La Taste","lat":12.193,"lng":-61.6181,"tz":"America/Grenada","p":1300}]},"01":{"name":"01","name_local":"01","cities":[{"id":"3580236","n":"Grenville","a":"Grenville","lat":12.1228,"lng":-61.625,"tz":"America/Grenada","p":2476},{"id":"3579854","n":"Tivoli","a":"Tivoli","lat":12.1727,"lng":-61.6164,"tz":"America/Grenada","p":700}]},"03":{"name":"03","name_local":"03","cities":[{"id":"3579925","n":"Saint George's","a":"Saint George's","lat":12.0529,"lng":-61.7523,"tz":"America/Grenada","p":7500}]},"02":{"name":"02","name_local":"02","cities":[{"id":"3579931","n":"Saint David’s","a":"Saint David's","lat":12.049,"lng":-61.6688,"tz":"America/Grenada","p":1321}]},"10":{"name":"10","name_local":"10","cities":[{"id":"3580215","n":"Hillsborough","a":"Hillsborough","lat":12.4829,"lng":-61.456,"tz":"America/Grenada","p":1000}]},"04":{"name":"04","name_local":"04","cities":[{"id":"3580279","n":"Gouyave","a":"Gouyave","lat":12.1646,"lng":-61.7296,"tz":"America/Grenada","p":3378},{"id":"3580257","n":"Grand Roy","a":"Grand Roy","lat":12.1322,"lng":-61.7454,"tz":"America/Grenada","p":2400}]}}}