{"country":"GG","name":"GG","name_zh":"GG","admin1s":{"6417214":{"name":"6417214","name_local":"6417214","cities":[{"id":"3042274","n":"Torteval","a":"Torteval","lat":49.4333,"lng":-2.65,"tz":"Europe/Guernsey","p":0}]},"6417233":{"name":"6417233","name_local":"6417233","cities":[{"id":"3042286","n":"Saint Sampson","a":"Saint Sampson","lat":49.4839,"lng":-2.5233,"tz":"Europe/Guernsey","p":8966}]},"6417228":{"name":"6417228","name_local":"6417228","cities":[{"id":"3042287","n":"Saint Peter Port","a":"Saint Peter Port","lat":49.4598,"lng":-2.5353,"tz":"Europe/Guernsey","p":16488}]},"8989934":{"name":"8989934","name_local":"8989934","cities":[{"id":"3042289","n":"St Anne","a":"St Anne","lat":49.7155,"lng":-2.2076,"tz":"Europe/Guernsey","p":0}]},"6417215":{"name":"6417215","name_local":"6417215","cities":[{"id":"6424194","n":"Saint Saviour","a":"Saint Saviour","lat":49.4569,"lng":-2.6358,"tz":"Europe/Guernsey","p":0}]},"6417229":{"name":"6417229","name_local":"6417229","cities":[{"id":"6692239","n":"Castel","a":"Castel","lat":49.4676,"lng":-2.6002,"tz":"Europe/Guernsey","p":0}]},"6417226":{"name":"6417226","name_local":"6417226","cities":[{"id":"6692240","n":"Saint Andrew","a":"Saint Andrew","lat":49.4439,"lng":-2.5802,"tz":"Europe/Guernsey","p":0}]},"00":{"name":"00","name_local":"00","cities":[{"id":"6696201","n":"Sark","a":"Sark","lat":49.4333,"lng":-2.3562,"tz":"Europe/Guernsey","p":600}]},"6417224":{"name":"6417224","name_local":"6417224","cities":[{"id":"6696773","n":"St Martin","a":"St Martin","lat":49.4371,"lng":-2.5548,"tz":"Europe/Guernsey","p":0}]},"":{"name":"","name_local":"","cities":[{"id":"13527037","n":"Vale Parish","a":"Vale Parish","lat":49.4944,"lng":-2.5179,"tz":"Europe/Guernsey","p":9646},{"id":"13527042","n":"Saint Pierre du Bois Parish","a":"Saint Pierre du Bois Parish","lat":49.454,"lng":-2.6381,"tz":"Europe/Guernsey","p":2001}]},"6417223":{"name":"6417223","name_local":"6417223","cities":[{"id":"13527040","n":"Forest Parish","a":"Forest Parish","lat":49.4298,"lng":-2.6017,"tz":"Europe/Guernsey","p":1624}]}}}