{"country":"GU","name":"GU","name_zh":"GU","admin1s":{"PI":{"name":"PI","name_local":"PI","cities":[{"id":"4038473","n":"Piti Village","a":"Piti Village","lat":13.4626,"lng":144.6933,"tz":"Pacific/Guam","p":1666}]},"SR":{"name":"SR","name_local":"SR","cities":[{"id":"4038554","n":"Santa Rita Village","a":"Santa Rita Village","lat":13.3861,"lng":144.6723,"tz":"Pacific/Guam","p":7500},{"id":"13237020","n":"Apra Harbor","a":"Apra Harbor","lat":13.4283,"lng":144.6525,"tz":"Pacific/Guam","p":2930}]},"SJ":{"name":"SJ","name_local":"SJ","cities":[{"id":"4038588","n":"Sinajana Village","a":"Sinajana Village","lat":13.4633,"lng":144.7541,"tz":"Pacific/Guam","p":2853}]},"TF":{"name":"TF","name_local":"TF","cities":[{"id":"4038647","n":"Talofofo Village","a":"Talofofo Village","lat":13.3551,"lng":144.7584,"tz":"Pacific/Guam","p":3215}]},"TM":{"name":"TM","name_local":"TM","cities":[{"id":"4038659","n":"Tamuning-Tumon-Harmon Village","a":"Tamuning-Tumon-Harmon Village","lat":13.4877,"lng":144.7814,"tz":"Pacific/Guam","p":19685},{"id":"7874631","n":"Tamuning","a":"Tamuning","lat":13.4875,"lng":144.7814,"tz":"Pacific/Guam","p":19685},{"id":"7874277","n":"Apotgan","a":"Apotgan","lat":13.4882,"lng":144.7764,"tz":"Pacific/Guam","p":5224}]},"UM":{"name":"UM","name_local":"UM","cities":[{"id":"4038733","n":"Umatac Village","a":"Umatac Village","lat":13.2984,"lng":144.6631,"tz":"Pacific/Guam","p":903}]},"YG":{"name":"YG","name_local":"YG","cities":[{"id":"4038794","n":"Yigo Village","a":"Yigo Village","lat":13.536,"lng":144.8886,"tz":"Pacific/Guam","p":20539},{"id":"13237021","n":"Chaguian","a":"Chaguian","lat":13.5717,"lng":144.8806,"tz":"Pacific/Guam","p":2524},{"id":"13237019","n":"Anao","a":"Anao","lat":13.5289,"lng":144.9182,"tz":"Pacific/Guam","p":2385}]},"YN":{"name":"YN","name_local":"YN","cities":[{"id":"4038809","n":"Yona Village","a":"Yona Village","lat":13.4097,"lng":144.777,"tz":"Pacific/Guam","p":6484}]},"ME":{"name":"ME","name_local":"ME","cities":[{"id":"4043399","n":"Merizo Village","a":"Merizo Village","lat":13.2658,"lng":144.6691,"tz":"Pacific/Guam","p":2152}]},"IN":{"name":"IN","name_local":"IN","cities":[{"id":"4043499","n":"Inarajan Village","a":"Inarajan Village","lat":13.2736,"lng":144.7484,"tz":"Pacific/Guam","p":3052}]},"AH":{"name":"AH","name_local":"AH","cities":[{"id":"4043525","n":"Agana Heights Village","a":"Agana Heights Village","lat":13.4656,"lng":144.748,"tz":"Pacific/Guam","p":3940}]},"CP":{"name":"CP","name_local":"CP","cities":[{"id":"4043615","n":"Chalan Pago-Ordot Village","a":"Chalan Pago-Ordot Village","lat":13.4474,"lng":144.759,"tz":"Pacific/Guam","p":6822}]},"BA":{"name":"BA","name_local":"BA","cities":[{"id":"4043656","n":"Barrigada Village","a":"Barrigada Village","lat":13.4691,"lng":144.799,"tz":"Pacific/Guam","p":8875}]},"AT":{"name":"AT","name_local":"AT","cities":[{"id":"4043804","n":"Agat Village","a":"Agat Village","lat":13.383,"lng":144.66,"tz":"Pacific/Guam","p":3292}]},"AS":{"name":"AS","name_local":"AS","cities":[{"id":"4043812","n":"Asan-Maina Village","a":"Asan-Maina Village","lat":13.4721,"lng":144.7165,"tz":"Pacific/Guam","p":2137},{"id":"7874393","n":"Asan","a":"Asan","lat":13.4717,"lng":144.7158,"tz":"Pacific/Guam","p":860}]},"DD":{"name":"DD","name_local":"DD","cities":[{"id":"4043909","n":"Dededo Village","a":"Dededo Village","lat":13.5178,"lng":144.8391,"tz":"Pacific/Guam","p":44943}]},"AN":{"name":"AN","name_local":"AN","cities":[{"id":"4044012","n":"Hag친t침a","a":"Hagatna","lat":13.4757,"lng":144.7489,"tz":"Pacific/Guam","p":1051},{"id":"7874008","n":"Hag친t침a Village","a":"Hagatna Village","lat":13.4728,"lng":144.758,"tz":"Pacific/Guam","p":1051}]},"MA":{"name":"MA","name_local":"MA","cities":[{"id":"7268049","n":"Mangilao Village","a":"Mangilao Village","lat":13.4476,"lng":144.8011,"tz":"Pacific/Guam","p":15191},{"id":"13237018","n":"Adacao","a":"Adacao","lat":13.4924,"lng":144.8447,"tz":"Pacific/Guam","p":3638}]},"MT":{"name":"MT","name_local":"MT","cities":[{"id":"7873866","n":"Mongmong-Toto-Maite Village","a":"Mongmong-Toto-Maite Village","lat":13.4686,"lng":144.7821,"tz":"Pacific/Guam","p":6825}]}}}