{"country":"GY","name":"Guyana","name_zh":"圭亚那","admin1s":{"14":{"name":"14","name_local":"14","cities":[{"id":"3376520","n":"Parika","a":"Parika","lat":6.8371,"lng":-58.4294,"tz":"America/Guyana","p":4081},{"id":"3375409","n":"Vreed-en-Hoop","a":"Vreed-en-Hoop","lat":6.8109,"lng":-58.1938,"tz":"America/Guyana","p":3073},{"id":"3375103","n":"Windsor Forest","a":"Windsor Forest","lat":6.8457,"lng":-58.2352,"tz":"America/Guyana","p":1602}]},"13":{"name":"13","name_local":"13","cities":[{"id":"3376762","n":"New Amsterdam","a":"New Amsterdam","lat":6.2492,"lng":-57.5158,"tz":"America/Guyana","p":35039},{"id":"3376227","n":"Rose Hall","a":"Rose Hall","lat":6.2558,"lng":-57.355,"tz":"America/Guyana","p":8000},{"id":"3375941","n":"Skeldon","a":"Skeldon","lat":5.8704,"lng":-57.1468,"tz":"America/Guyana","p":5859}]},"15":{"name":"15","name_local":"15","cities":[{"id":"3376223","n":"Rosignol","a":"Rosignol","lat":6.271,"lng":-57.537,"tz":"America/Guyana","p":5782},{"id":"3377265","n":"Mahaicony Village","a":"Mahaicony Village","lat":6.5721,"lng":-57.8062,"tz":"America/Guyana","p":2130},{"id":"8314122","n":"Fort Wellington","a":"Fort Wellington","lat":6.3918,"lng":-57.5963,"tz":"America/Guyana","p":0}]},"17":{"name":"17","name_local":"17","cities":[{"id":"3377263","n":"Mahdia","a":"Mahdia","lat":5.2847,"lng":-59.1498,"tz":"America/Guyana","p":4200}]},"12":{"name":"12","name_local":"12","cities":[{"id":"3378644","n":"Georgetown","a":"Georgetown","lat":6.8045,"lng":-58.1553,"tz":"America/Guyana","p":235017},{"id":"3377267","n":"Mahaica Village","a":"Mahaica Village","lat":6.6817,"lng":-57.9218,"tz":"America/Guyana","p":4867},{"id":"3378444","n":"Helena Number One","a":"Helena Number One","lat":6.673,"lng":-57.9245,"tz":"America/Guyana","p":1568}]},"10":{"name":"10","name_local":"10","cities":[{"id":"3377301","n":"Mabaruma","a":"Mabaruma","lat":8.2038,"lng":-59.7812,"tz":"America/Guyana","p":717}]},"18":{"name":"18","name_local":"18","cities":[{"id":"3377408","n":"Linden","a":"Linden","lat":6.0081,"lng":-58.3072,"tz":"America/Guyana","p":44690}]},"19":{"name":"19","name_local":"19","cities":[{"id":"3377425","n":"Lethem","a":"Lethem","lat":3.3726,"lng":-59.7997,"tz":"America/Guyana","p":716}]},"11":{"name":"11","name_local":"11","cities":[{"id":"3379507","n":"Bartica","a":"Bartica","lat":6.4054,"lng":-58.6233,"tz":"America/Guyana","p":11157}]},"16":{"name":"16","name_local":"16","cities":[{"id":"7303406","n":"Anna Regina","a":"Anna Regina","lat":7.2656,"lng":-58.4826,"tz":"America/Guyana","p":12448}]}}}