{"country":"IM","name":"IM","name_zh":"IM","admin1s":{"9782193":{"name":"9782193","name_local":"9782193","cities":[{"id":"3042182","n":"Santon","a":"Santon","lat":54.1167,"lng":-4.5833,"tz":"Europe/Isle_of_Man","p":0}]},"9782191":{"name":"9782191","name_local":"9782191","cities":[{"id":"3042192","n":"Ramsey","a":"Ramsey","lat":54.3227,"lng":-4.3853,"tz":"Europe/Isle_of_Man","p":7845}]},"9782190":{"name":"9782190","name_local":"9782190","cities":[{"id":"3042195","n":"Port Saint Mary","a":"Port Saint Mary","lat":54.074,"lng":-4.7386,"tz":"Europe/Isle_of_Man","p":0}]},"9782189":{"name":"9782189","name_local":"9782189","cities":[{"id":"3042196","n":"Port Erin","a":"Port Erin","lat":54.0849,"lng":-4.751,"tz":"Europe/Isle_of_Man","p":3530}]},"9782188":{"name":"9782188","name_local":"9782188","cities":[{"id":"3042198","n":"Peel","a":"Peel","lat":54.2221,"lng":-4.691,"tz":"Europe/Isle_of_Man","p":5374}]},"9782187":{"name":"9782187","name_local":"9782187","cities":[{"id":"3042199","n":"Patrick","a":"Patrick","lat":54.2045,"lng":-4.6942,"tz":"Europe/Isle_of_Man","p":0}]},"9782186":{"name":"9782186","name_local":"9782186","cities":[{"id":"3042201","n":"Onchan","a":"Onchan","lat":54.1733,"lng":-4.4532,"tz":"Europe/Isle_of_Man","p":0}]},"9782184":{"name":"9782184","name_local":"9782184","cities":[{"id":"3042210","n":"Maughold","a":"Maughold","lat":54.2988,"lng":-4.3184,"tz":"Europe/Isle_of_Man","p":0}]},"9782176":{"name":"9782176","name_local":"9782176","cities":[{"id":"3042213","n":"Lezayre","a":"Lezayre","lat":54.3167,"lng":-4.4167,"tz":"Europe/Isle_of_Man","p":0}]},"9782173":{"name":"9782173","name_local":"9782173","cities":[{"id":"3042217","n":"Laxey","a":"Laxey","lat":54.2302,"lng":-4.3998,"tz":"Europe/Isle_of_Man","p":1768}]},"9782185":{"name":"9782185","name_local":"9782185","cities":[{"id":"3042220","n":"Kirkmichael","a":"Kirkmichael","lat":54.2856,"lng":-4.5875,"tz":"Europe/Isle_of_Man","p":0}]},"9782167":{"name":"9782167","name_local":"9782167","cities":[{"id":"3042221","n":"Kirk Braddan","a":"Kirk Braddan","lat":54.1667,"lng":-4.5167,"tz":"Europe/Isle_of_Man","p":0}]},"9782172":{"name":"9782172","name_local":"9782172","cities":[{"id":"3042224","n":"Jurby","a":"Jurby","lat":54.3594,"lng":-4.522,"tz":"Europe/Isle_of_Man","p":0}]},"9782170":{"name":"9782170","name_local":"9782170","cities":[{"id":"3042237","n":"Douglas","a":"Douglas","lat":54.15,"lng":-4.4833,"tz":"Europe/Isle_of_Man","p":26218}]},"9782183":{"name":"9782183","name_local":"9782183","cities":[{"id":"3042245","n":"Crosby","a":"Crosby","lat":54.1833,"lng":-4.5667,"tz":"Europe/Isle_of_Man","p":0}]},"9782169":{"name":"9782169","name_local":"9782169","cities":[{"id":"3042255","n":"Castletown","a":"Castletown","lat":54.0744,"lng":-4.6536,"tz":"Europe/Isle_of_Man","p":3100}]},"9782168":{"name":"9782168","name_local":"9782168","cities":[{"id":"3042259","n":"Bride","a":"Bride","lat":54.3826,"lng":-4.3892,"tz":"Europe/Isle_of_Man","p":0}]},"9782182":{"name":"9782182","name_local":"9782182","cities":[{"id":"3042264","n":"Ballasalla","a":"Ballasalla","lat":54.0959,"lng":-4.6296,"tz":"Europe/Isle_of_Man","p":0}]},"9782165":{"name":"9782165","name_local":"9782165","cities":[{"id":"3042267","n":"Ballabeg","a":"Ballabeg","lat":54.1,"lng":-4.6833,"tz":"Europe/Isle_of_Man","p":0}]},"9782164":{"name":"9782164","name_local":"9782164","cities":[{"id":"3042271","n":"Andreas","a":"Andreas","lat":54.3667,"lng":-4.4333,"tz":"Europe/Isle_of_Man","p":0}]},"9782166":{"name":"9782166","name_local":"9782166","cities":[{"id":"8468983","n":"Ballaugh","a":"Ballaugh","lat":54.3119,"lng":-4.5446,"tz":"Europe/Isle_of_Man","p":0}]}}}