{"country":"KN","name":"Saint Kitts and Nevis","name_zh":"圣基茨和尼维斯","admin1s":{"15":{"name":"15","name_local":"15","cities":[{"id":"3575115","n":"Trinity","a":"Trinity","lat":17.3004,"lng":-62.7758,"tz":"America/St_Kitts","p":1692},{"id":"3575531","n":"Boyd’s","a":"Boyd's","lat":17.2978,"lng":-62.7702,"tz":"America/St_Kitts","p":591}]},"02":{"name":"02","name_local":"02","cities":[{"id":"3575156","n":"Sandy Point Town","a":"Sandy Point Town","lat":17.3591,"lng":-62.8486,"tz":"America/St_Kitts","p":3140}]},"09":{"name":"09","name_local":"09","cities":[{"id":"3575170","n":"Saint Paul’s","a":"Saint Paul's","lat":17.4061,"lng":-62.8356,"tz":"America/St_Kitts","p":2460}]},"06":{"name":"06","name_local":"06","cities":[{"id":"3575186","n":"Sadlers","a":"Sadlers","lat":17.4045,"lng":-62.793,"tz":"America/St_Kitts","p":1205},{"id":"3575441","n":"Dieppe Bay Town","a":"Dieppe Bay Town","lat":17.4147,"lng":-62.8139,"tz":"America/St_Kitts","p":592}]},"13":{"name":"13","name_local":"13","cities":[{"id":"3575292","n":"Middle Island","a":"Middle Island","lat":17.3259,"lng":-62.8105,"tz":"America/St_Kitts","p":2332},{"id":"3575240","n":"Old Road Town","a":"Old Road Town","lat":17.3222,"lng":-62.8034,"tz":"America/St_Kitts","p":1647}]},"01":{"name":"01","name_local":"01","cities":[{"id":"3575251","n":"Nicola Town","a":"Nicola Town","lat":17.3796,"lng":-62.7532,"tz":"America/St_Kitts","p":2059},{"id":"3575300","n":"Mansion","a":"Mansion","lat":17.3827,"lng":-62.7575,"tz":"America/St_Kitts","p":690}]},"05":{"name":"05","name_local":"05","cities":[{"id":"3575261","n":"Newcastle","a":"Newcastle","lat":17.2,"lng":-62.5833,"tz":"America/St_Kitts","p":493}]},"11":{"name":"11","name_local":"11","cities":[{"id":"3575284","n":"Monkey Hill","a":"Monkey Hill","lat":17.3233,"lng":-62.7291,"tz":"America/St_Kitts","p":592}]},"04":{"name":"04","name_local":"04","cities":[{"id":"3575296","n":"Market Shop","a":"Market Shop","lat":17.1322,"lng":-62.5727,"tz":"America/St_Kitts","p":2568}]},"07":{"name":"07","name_local":"07","cities":[{"id":"3575423","n":"Fig Tree","a":"Fig Tree","lat":17.1262,"lng":-62.6026,"tz":"America/St_Kitts","p":2922}]},"12":{"name":"12","name_local":"12","cities":[{"id":"3575458","n":"Cotton Ground","a":"Cotton Ground","lat":17.1667,"lng":-62.6167,"tz":"America/St_Kitts","p":381}]},"10":{"name":"10","name_local":"10","cities":[{"id":"3575479","n":"Charlestown","a":"Charlestown","lat":17.1333,"lng":-62.6167,"tz":"America/St_Kitts","p":1538}]},"08":{"name":"08","name_local":"08","cities":[{"id":"3575487","n":"Cayon","a":"Cayon","lat":17.35,"lng":-62.7333,"tz":"America/St_Kitts","p":788}]},"03":{"name":"03","name_local":"03","cities":[{"id":"3575551","n":"Basseterre","a":"Basseterre","lat":17.2955,"lng":-62.725,"tz":"America/St_Kitts","p":12920}]}}}