{"country":"LI","name":"Liechtenstein","name_zh":"列支敦士登","admin1s":{"11":{"name":"11","name_local":"11","cities":[{"id":"3042030","n":"Vaduz","a":"Vaduz","lat":47.1415,"lng":9.5215,"tz":"Europe/Vaduz","p":5197}]},"10":{"name":"10","name_local":"10","cities":[{"id":"3042033","n":"Triesenberg","a":"Triesenberg","lat":47.1181,"lng":9.542,"tz":"Europe/Vaduz","p":2643}]},"09":{"name":"09","name_local":"09","cities":[{"id":"3042035","n":"Triesen","a":"Triesen","lat":47.1075,"lng":9.5282,"tz":"Europe/Vaduz","p":5230}]},"08":{"name":"08","name_local":"08","cities":[{"id":"3042037","n":"Schellenberg","a":"Schellenberg","lat":47.2312,"lng":9.5468,"tz":"Europe/Vaduz","p":1091}]},"07":{"name":"07","name_local":"07","cities":[{"id":"3042041","n":"Schaan","a":"Schaan","lat":47.165,"lng":9.5087,"tz":"Europe/Vaduz","p":5998}]},"06":{"name":"06","name_local":"06","cities":[{"id":"3042046","n":"Ruggell","a":"Ruggell","lat":47.238,"lng":9.5254,"tz":"Europe/Vaduz","p":2295}]},"05":{"name":"05","name_local":"05","cities":[{"id":"3042049","n":"Planken","a":"Planken","lat":47.1852,"lng":9.5444,"tz":"Europe/Vaduz","p":478}]},"02":{"name":"02","name_local":"02","cities":[{"id":"3042068","n":"Eschen","a":"Eschen","lat":47.2107,"lng":9.5222,"tz":"Europe/Vaduz","p":4459},{"id":"3042052","n":"Nendeln","a":"Nendeln","lat":47.1985,"lng":9.543,"tz":"Europe/Vaduz","p":1407}]},"04":{"name":"04","name_local":"04","cities":[{"id":"3042055","n":"Mauren","a":"Mauren","lat":47.218,"lng":9.5442,"tz":"Europe/Vaduz","p":4404}]},"03":{"name":"03","name_local":"03","cities":[{"id":"3042072","n":"Bendern","a":"Bendern","lat":47.212,"lng":9.5068,"tz":"Europe/Vaduz","p":1664},{"id":"3042062","n":"Gamprin","a":"Gamprin","lat":47.2204,"lng":9.5093,"tz":"Europe/Vaduz","p":1663}]},"01":{"name":"01","name_local":"01","cities":[{"id":"3042073","n":"Balzers","a":"Balzers","lat":47.0666,"lng":9.5036,"tz":"Europe/Vaduz","p":4628}]}}}