{"country":"LR","name":"Liberia","name_zh":"利比里亚","admin1s":{"19":{"name":"19","name_local":"19","cities":[{"id":"2272491","n":"Zwedru","a":"Zwedru","lat":6.0685,"lng":-8.1356,"tz":"Africa/Monrovia","p":38269}]},"20":{"name":"20","name_local":"20","cities":[{"id":"2277301","n":"Foya Kamara","a":"Foya Kamara","lat":8.3603,"lng":-10.2064,"tz":"Africa/Monrovia","p":31052},{"id":"2273312","n":"Voinjama","a":"Voinjama","lat":8.4219,"lng":-9.7478,"tz":"Africa/Monrovia","p":23051},{"id":"2272534","n":"Zorzor","a":"Zorzor","lat":7.7794,"lng":-9.4303,"tz":"Africa/Monrovia","p":8419}]},"09":{"name":"09","name_local":"09","cities":[{"id":"2277241","n":"Ganta","a":"Ganta","lat":7.235,"lng":-8.9844,"tz":"Africa/Monrovia","p":63523},{"id":"2272790","n":"New Yekepa","a":"New Yekepa","lat":7.5794,"lng":-8.5378,"tz":"Africa/Monrovia","p":24695},{"id":"2274222","n":"Saclepea","a":"Saclepea","lat":6.9625,"lng":-8.8406,"tz":"Africa/Monrovia","p":20818},{"id":"2274129","n":"Sanniquellie","a":"Sanniquellie","lat":7.3621,"lng":-8.7133,"tz":"Africa/Monrovia","p":17895},{"id":"2277197","n":"Ganta","a":"Ganta","lat":7.3022,"lng":-8.5308,"tz":"Africa/Monrovia","p":13802},{"id":"2276103","n":"Karnplay","a":"Karnplay","lat":7.2697,"lng":-8.5039,"tz":"Africa/Monrovia","p":8431},{"id":"8260265","n":"Buutuo","a":"Buutuo","lat":6.8275,"lng":-8.3428,"tz":"Africa/Monrovia","p":0}]},"15":{"name":"15","name_local":"15","cities":[{"id":"2273435","n":"Tubmanburg","a":"Tubmanburg","lat":6.8706,"lng":-10.8211,"tz":"Africa/Monrovia","p":22005}]},"22":{"name":"22","name_local":"22","cities":[{"id":"2274286","n":"River Gbeh","a":"River Gbeh","lat":5.2119,"lng":-7.6681,"tz":"Africa/Monrovia","p":7313},{"id":"2273638","n":"Fish Town","a":"Fish Town","lat":5.1974,"lng":-7.8758,"tz":"Africa/Monrovia","p":5383}]},"12":{"name":"12","name_local":"12","cities":[{"id":"2274275","n":"Robertsport","a":"Robertsport","lat":6.7533,"lng":-11.3671,"tz":"Africa/Monrovia","p":5306}]},"18":{"name":"18","name_local":"18","cities":[{"id":"2274288","n":"River Cess","a":"River Cess","lat":5.4568,"lng":-9.5817,"tz":"Africa/Monrovia","p":3606}]},"13":{"name":"13","name_local":"13","cities":[{"id":"2276492","n":"Harper","a":"Harper","lat":4.3782,"lng":-7.7108,"tz":"Africa/Monrovia","p":35503},{"id":"2274372","n":"Pleebo City","a":"Pleebo City","lat":4.5895,"lng":-7.6722,"tz":"Africa/Monrovia","p":35423}]},"14":{"name":"14","name_local":"14","cities":[{"id":"2274895","n":"Monrovia","a":"Monrovia","lat":6.3005,"lng":-10.7969,"tz":"Africa/Monrovia","p":1542549},{"id":"2278682","n":"Bensonville","a":"Bensonville","lat":6.4472,"lng":-10.6128,"tz":"Africa/Monrovia","p":785}]},"17":{"name":"17","name_local":"17","cities":[{"id":"2276086","n":"Kakata","a":"Kakata","lat":6.531,"lng":-10.3537,"tz":"Africa/Monrovia","p":52247},{"id":"2276506","n":"Harbel","a":"Harbel","lat":6.2468,"lng":-10.3564,"tz":"Africa/Monrovia","p":38208}]},"10":{"name":"10","name_local":"10","cities":[{"id":"2276600","n":"Greenville","a":"Greenville","lat":5.0113,"lng":-9.0388,"tz":"Africa/Monrovia","p":20184}]},"01":{"name":"01","name_local":"01","cities":[{"id":"2277060","n":"Gbarnga","a":"Gbarnga","lat":6.9954,"lng":-9.4712,"tz":"Africa/Monrovia","p":86031}]},"11":{"name":"11","name_local":"11","cities":[{"id":"2278158","n":"Buchanan","a":"Buchanan","lat":5.8769,"lng":-10.0496,"tz":"Africa/Monrovia","p":75854}]},"21":{"name":"21","name_local":"21","cities":[{"id":"2278248","n":"Bopolu","a":"Bopolu","lat":7.0667,"lng":-10.4875,"tz":"Africa/Monrovia","p":4396}]},"16":{"name":"16","name_local":"16","cities":[{"id":"2278889","n":"Barclayville","a":"Barclayville","lat":4.6744,"lng":-8.2331,"tz":"Africa/Monrovia","p":4692}]}}}