{"country":"MD","name":"Moldova","name_zh":"摩尔多瓦","admin1s":{"58":{"name":"58","name_local":"58","cities":[{"id":"617239","n":"Tiraspol","a":"Tiraspol","lat":46.8428,"lng":29.6284,"tz":"Europe/Chisinau","p":157000},{"id":"617486","n":"Rîbniţa","a":"Ribnita","lat":47.7682,"lng":29.01,"tz":"Europe/Chisinau","p":55455},{"id":"618365","n":"Dubăsari","a":"Dubasari","lat":47.2656,"lng":29.1667,"tz":"Europe/Chisinau","p":23254},{"id":"617381","n":"Slobozia","a":"Slobozia","lat":46.7293,"lng":29.7045,"tz":"Europe/Chisinau","p":15356},{"id":"618453","n":"Camenca","a":"Camenca","lat":48.0323,"lng":28.699,"tz":"Europe/Chisinau","p":11072},{"id":"618387","n":"Dnestrovsc","a":"Dnestrovsc","lat":46.624,"lng":29.906,"tz":"Europe/Chisinau","p":10426},{"id":"618234","n":"Hryhoriopol","a":"Hryhoriopol","lat":47.1541,"lng":29.3001,"tz":"Europe/Chisinau","p":9456},{"id":"617602","n":"Pervomaisc","a":"Pervomaisc","lat":46.7325,"lng":29.9617,"tz":"Europe/Chisinau","p":7300},{"id":"618556","n":"Blijnii Hutor","a":"Blijnii Hutor","lat":46.8875,"lng":29.6465,"tz":"Europe/Chisinau","p":7292},{"id":"617973","n":"Crasnoe","a":"Crasnoe","lat":46.643,"lng":29.823,"tz":"Europe/Chisinau","p":4200},{"id":"617053","n":"Tiraspolul Nou","a":"Tiraspolul Nou","lat":46.83,"lng":29.564,"tz":"Europe/Chisinau","p":2200},{"id":"617830","n":"Maiac","a":"Maiac","lat":47.2373,"lng":29.385,"tz":"Europe/Chisinau","p":1500},{"id":"617660","n":"Ocniţa","a":"Ocnita","lat":48.1328,"lng":28.6356,"tz":"Europe/Chisinau","p":815}]},"73":{"name":"73","name_local":"73","cities":[{"id":"617076","n":"Edineţ","a":"Edinet","lat":48.1732,"lng":27.3008,"tz":"Europe/Chisinau","p":22872}]},"65":{"name":"65","name_local":"65","cities":[{"id":"617081","n":"Iargara","a":"Iargara","lat":46.4252,"lng":28.4268,"tz":"Europe/Chisinau","p":5600},{"id":"618452","n":"Cantemir","a":"Cantemir","lat":46.2775,"lng":28.2005,"tz":"Europe/Chisinau","p":3829},{"id":"617118","n":"Vişniovca","a":"Visniovca","lat":46.3326,"lng":28.448,"tz":"Europe/Chisinau","p":1800}]},"51":{"name":"51","name_local":"51","cities":[{"id":"618405","n":"Comrat","a":"Comrat","lat":46.2949,"lng":28.6571,"tz":"Europe/Chisinau","p":22911},{"id":"618450","n":"Ceadîr-Lunga","a":"Ceadir-Lunga","lat":46.0617,"lng":28.8308,"tz":"Europe/Chisinau","p":22700},{"id":"617096","n":"Vulcăneşti","a":"Vulcanesti","lat":45.6849,"lng":28.4061,"tz":"Europe/Chisinau","p":14352},{"id":"618404","n":"Congaz","a":"Congaz","lat":46.1074,"lng":28.593,"tz":"Europe/Chisinau","p":13406},{"id":"618491","n":"Bugeac","a":"Bugeac","lat":46.3655,"lng":28.6625,"tz":"Europe/Chisinau","p":1800}]},"59":{"name":"59","name_local":"59","cities":[{"id":"617702","n":"Anenii Noi","a":"Anenii Noi","lat":46.8779,"lng":29.235,"tz":"Europe/Chisinau","p":8250},{"id":"617149","n":"Varniţa","a":"Varnita","lat":46.8661,"lng":29.4664,"tz":"Europe/Chisinau","p":4000},{"id":"617823","n":"Merenii Noi","a":"Merenii Noi","lat":46.9259,"lng":29.0624,"tz":"Europe/Chisinau","p":1514}]},"57":{"name":"57","name_local":"57","cities":[{"id":"618426","n":"Chisinau","a":"Chisinau","lat":47.009,"lng":28.8594,"tz":"Europe/Chisinau","p":635994},{"id":"618054","n":"Codru","a":"Codru","lat":46.9765,"lng":28.819,"tz":"Europe/Chisinau","p":15934},{"id":"617965","n":"Cricova","a":"Cricova","lat":47.1384,"lng":28.8616,"tz":"Europe/Chisinau","p":7400},{"id":"617279","n":"Sîngera","a":"Singera","lat":46.9156,"lng":28.9667,"tz":"Europe/Chisinau","p":7200},{"id":"824153","n":"Ciorescu","a":"Ciorescu","lat":47.13,"lng":28.8894,"tz":"Europe/Chisinau","p":6870},{"id":"617317","n":"Stăuceni","a":"Stauceni","lat":47.0964,"lng":28.8679,"tz":"Europe/Chisinau","p":5700},{"id":"617164","n":"Vadul lui Vodă","a":"Vadul lui Voda","lat":47.0901,"lng":29.0757,"tz":"Europe/Chisinau","p":5300},{"id":"824134","n":"Vatra","a":"Vatra","lat":47.0746,"lng":28.7369,"tz":"Europe/Chisinau","p":3800}]},"72":{"name":"72","name_local":"72","cities":[{"id":"618057","n":"Cocieri","a":"Cocieri","lat":47.3017,"lng":29.1176,"tz":"Europe/Chisinau","p":4151},{"id":"617170","n":"Ustia","a":"Ustia","lat":47.2552,"lng":29.1241,"tz":"Europe/Chisinau","p":3295}]},"92":{"name":"92","name_local":"92","cities":[{"id":"617180","n":"Ungheni","a":"Ungheni","lat":47.2102,"lng":27.8001,"tz":"Europe/Chisinau","p":34422}]},"90":{"name":"90","name_local":"90","cities":[{"id":"617270","n":"Taraclia","a":"Taraclia","lat":45.9032,"lng":28.6663,"tz":"Europe/Chisinau","p":13512},{"id":"617187","n":"Tvardița","a":"Tvardita","lat":46.1483,"lng":28.9649,"tz":"Europe/Chisinau","p":5800}]},"91":{"name":"91","name_local":"91","cities":[{"id":"617778","n":"Mîndreşti","a":"Mindresti","lat":47.5052,"lng":28.2769,"tz":"Europe/Chisinau","p":9280},{"id":"617254","n":"Teleneşti","a":"Telenesti","lat":47.5018,"lng":28.3648,"tz":"Europe/Chisinau","p":6633}]},"88":{"name":"88","name_local":"88","cities":[{"id":"617284","n":"Ştefan Vodă","a":"Stefan Voda","lat":46.5129,"lng":29.6622,"tz":"Europe/Chisinau","p":7700}]},"89":{"name":"89","name_local":"89","cities":[{"id":"617302","n":"Strășeni","a":"Straseni","lat":47.1422,"lng":28.6077,"tz":"Europe/Chisinau","p":19225},{"id":"618459","n":"Bucovăţ","a":"Bucovat","lat":47.1906,"lng":28.458,"tz":"Europe/Chisinau","p":1600},{"id":"617541","n":"Dolna","a":"Dolna","lat":47.1219,"lng":28.2703,"tz":"Europe/Chisinau","p":1155}]},"85":{"name":"85","name_local":"85","cities":[{"id":"617345","n":"Bilicenii Vechi","a":"Bilicenii Vechi","lat":47.6558,"lng":28.0473,"tz":"Europe/Chisinau","p":15479},{"id":"617914","n":"Sîngerei","a":"Singerei","lat":47.6369,"lng":28.1407,"tz":"Europe/Chisinau","p":14600},{"id":"830975","n":"Biruinţa","a":"Biruinta","lat":47.8135,"lng":28.07,"tz":"Europe/Chisinau","p":4700}]},"87":{"name":"87","name_local":"87","cities":[{"id":"617367","n":"Soroca","a":"Soroca","lat":48.1566,"lng":28.2849,"tz":"Europe/Chisinau","p":27423}]},"86":{"name":"86","name_local":"86","cities":[{"id":"617372","n":"Şoldăneşti","a":"Soldanesti","lat":47.8162,"lng":28.7984,"tz":"Europe/Chisinau","p":6160}]},"83":{"name":"83","name_local":"83","cities":[{"id":"617502","n":"Rezina","a":"Rezina","lat":47.7486,"lng":28.9677,"tz":"Europe/Chisinau","p":9806},{"id":"617471","n":"Saharna","a":"Saharna","lat":47.6911,"lng":28.9746,"tz":"Europe/Chisinau","p":2365}]},"84":{"name":"84","name_local":"84","cities":[{"id":"617482","n":"Rîşcani","a":"Riscani","lat":47.9483,"lng":27.5667,"tz":"Europe/Chisinau","p":12893}]},"71":{"name":"71","name_local":"71","cities":[{"id":"618370","n":"Drochia","a":"Drochia","lat":48.0369,"lng":27.8124,"tz":"Europe/Chisinau","p":16080},{"id":"617569","n":"Popeştii de Sus","a":"Popestii de Sus","lat":48.0881,"lng":28.0256,"tz":"Europe/Chisinau","p":1463}]},"77":{"name":"77","name_local":"77","cities":[{"id":"617993","n":"Hînceşti","a":"Hincesti","lat":46.8309,"lng":28.59,"tz":"Europe/Chisinau","p":16900},{"id":"618400","n":"Dancu","a":"Dancu","lat":46.7582,"lng":28.2072,"tz":"Europe/Chisinau","p":10000},{"id":"617578","n":"Pogăneşti","a":"Poganesti","lat":46.6925,"lng":28.2319,"tz":"Europe/Chisinau","p":1462}]},"82":{"name":"82","name_local":"82","cities":[{"id":"617638","n":"Orhei","a":"Orhei","lat":47.385,"lng":28.8254,"tz":"Europe/Chisinau","p":24918}]},"81":{"name":"81","name_local":"81","cities":[{"id":"617659","n":"Ocniţa","a":"Ocnita","lat":48.3823,"lng":27.4386,"tz":"Europe/Chisinau","p":9325},{"id":"618631","n":"Otaci","a":"Otaci","lat":48.4329,"lng":27.7991,"tz":"Europe/Chisinau","p":8400}]},"80":{"name":"80","name_local":"80","cities":[{"id":"617753","n":"Nisporeni","a":"Nisporeni","lat":47.0802,"lng":28.171,"tz":"Europe/Chisinau","p":11718}]},"75":{"name":"75","name_local":"75","cities":[{"id":"618329","n":"Floreşti","a":"Floresti","lat":47.8917,"lng":28.2934,"tz":"Europe/Chisinau","p":16759},{"id":"617837","n":"Mărculeşti","a":"Marculesti","lat":47.869,"lng":28.2411,"tz":"Europe/Chisinau","p":2400},{"id":"618275","n":"Ghindești","a":"Ghindesti","lat":47.8548,"lng":28.3768,"tz":"Europe/Chisinau","p":2100}]},"79":{"name":"79","name_local":"79","cities":[{"id":"617904","n":"Leova","a":"Leova","lat":46.4819,"lng":28.253,"tz":"Europe/Chisinau","p":14301}]},"67":{"name":"67","name_local":"67","cities":[{"id":"618120","n":"Căuşeni","a":"Causeni","lat":46.6374,"lng":29.4109,"tz":"Europe/Chisinau","p":21690},{"id":"618067","n":"Chiţcani","a":"Chitcani","lat":46.783,"lng":29.6168,"tz":"Europe/Chisinau","p":9000}]},"78":{"name":"78","name_local":"78","cities":[{"id":"618196","n":"Ialoveni","a":"Ialoveni","lat":46.9436,"lng":28.7815,"tz":"Europe/Chisinau","p":14915}]},"76":{"name":"76","name_local":"76","cities":[{"id":"618261","n":"Glodeni","a":"Glodeni","lat":47.7747,"lng":27.5175,"tz":"Europe/Chisinau","p":10146}]},"74":{"name":"74","name_local":"74","cities":[{"id":"618344","n":"Fălești","a":"Falesti","lat":47.5767,"lng":27.7126,"tz":"Europe/Chisinau","p":14377}]},"64":{"name":"64","name_local":"64","cities":[{"id":"618456","n":"Cahul","a":"Cahul","lat":45.9046,"lng":28.1952,"tz":"Europe/Chisinau","p":34492},{"id":"618349","n":"Giurgiuleşti","a":"Giurgiulesti","lat":45.4817,"lng":28.1972,"tz":"Europe/Chisinau","p":3074}]},"70":{"name":"70","name_local":"70","cities":[{"id":"618512","n":"Briceni","a":"Briceni","lat":48.3563,"lng":27.7029,"tz":"Europe/Chisinau","p":14132},{"id":"618382","n":"Donduşeni","a":"Donduseni","lat":48.2427,"lng":27.6101,"tz":"Europe/Chisinau","p":9435}]},"69":{"name":"69","name_local":"69","cities":[{"id":"618403","n":"Criuleni","a":"Criuleni","lat":47.2134,"lng":29.1585,"tz":"Europe/Chisinau","p":6932}]},"68":{"name":"68","name_local":"68","cities":[{"id":"618406","n":"Cimişlia","a":"Cimislia","lat":46.5263,"lng":28.7649,"tz":"Europe/Chisinau","p":12464}]},"66":{"name":"66","name_local":"66","cities":[{"id":"618454","n":"Călăraşi","a":"Calarasi","lat":47.2555,"lng":28.3095,"tz":"Europe/Chisinau","p":14066}]},"63":{"name":"63","name_local":"63","cities":[{"id":"618510","n":"Briceni","a":"Briceni","lat":48.363,"lng":27.0785,"tz":"Europe/Chisinau","p":9900}]},"62":{"name":"62","name_local":"62","cities":[{"id":"618577","n":"Bender","a":"Bender","lat":46.8316,"lng":29.4767,"tz":"Europe/Chisinau","p":110175}]},"61":{"name":"61","name_local":"61","cities":[{"id":"618594","n":"Basarabeasca","a":"Basarabeasca","lat":46.3335,"lng":28.9616,"tz":"Europe/Chisinau","p":10809}]},"60":{"name":"60","name_local":"60","cities":[{"id":"618605","n":"Bălţi","a":"Balti","lat":47.7629,"lng":27.9285,"tz":"Europe/Chisinau","p":125000}]}}}