{"country":"ME","name":"Montenegro","name_zh":"黑山","admin1s":{"17":{"name":"17","name_local":"17","cities":[{"id":"786234","n":"Rožaje","a":"Rozaje","lat":42.833,"lng":20.1665,"tz":"Europe/Podgorica","p":9121}]},"12":{"name":"12","name_local":"12","cities":[{"id":"3194494","n":"Nikšić","a":"Niksic","lat":42.7731,"lng":18.9445,"tz":"Europe/Podgorica","p":58212},{"id":"3196877","n":"Kuta","a":"Kuta","lat":42.7411,"lng":19.1192,"tz":"Europe/Podgorica","p":950},{"id":"3195093","n":"Miločani","a":"Milocani","lat":42.8292,"lng":18.9044,"tz":"Europe/Podgorica","p":645},{"id":"3201044","n":"Dučice","a":"Ducice","lat":42.7153,"lng":19.1233,"tz":"Europe/Podgorica","p":589},{"id":"3186901","n":"Zagrad","a":"Zagrad","lat":42.75,"lng":19.0911,"tz":"Europe/Podgorica","p":550}]},"21":{"name":"21","name_local":"21","cities":[{"id":"3186999","n":"Žabljak","a":"Zabljak","lat":43.1542,"lng":19.1232,"tz":"Europe/Podgorica","p":1937}]},"24":{"name":"24","name_local":"24","cities":[{"id":"3188584","n":"Tuzi","a":"Tuzi","lat":42.3658,"lng":19.3297,"tz":"Europe/Podgorica","p":3789},{"id":"3187368","n":"Vranj","a":"Vranj","lat":42.3258,"lng":19.2978,"tz":"Europe/Podgorica","p":903}]},"20":{"name":"20","name_local":"20","cities":[{"id":"3188516","n":"Ulcinj","a":"Ulcinj","lat":41.9294,"lng":19.2244,"tz":"Europe/Podgorica","p":10828}]},"19":{"name":"19","name_local":"19","cities":[{"id":"3189073","n":"Tivat","a":"Tivat","lat":42.4362,"lng":18.6936,"tz":"Europe/Podgorica","p":6280},{"id":"3194750","n":"Mrčevac","a":"Mrcevac","lat":42.42,"lng":18.7181,"tz":"Europe/Podgorica","p":797},{"id":"3201675","n":"Donja Lastva","a":"Donja Lastva","lat":42.4431,"lng":18.6886,"tz":"Europe/Podgorica","p":674}]},"02":{"name":"02","name_local":"02","cities":[{"id":"3204509","n":"Bar","a":"Bar","lat":42.0937,"lng":19.0984,"tz":"Europe/Podgorica","p":17727},{"id":"3318488","n":"Šušanj","a":"Susanj","lat":42.1156,"lng":19.0883,"tz":"Europe/Podgorica","p":2521},{"id":"3189429","n":"Sutomore","a":"Sutomore","lat":42.1428,"lng":19.0467,"tz":"Europe/Podgorica","p":1827},{"id":"3189979","n":"Stari Bar","a":"Stari Bar","lat":42.097,"lng":19.136,"tz":"Europe/Podgorica","p":1514},{"id":"3201957","n":"Dobra Voda","a":"Dobra Voda","lat":42.0489,"lng":19.1439,"tz":"Europe/Podgorica","p":995}]},"14":{"name":"14","name_local":"14","cities":[{"id":"3193161","n":"Pljevlja","a":"Pljevlja","lat":43.3567,"lng":19.3584,"tz":"Europe/Podgorica","p":19489},{"id":"3189528","n":"Šula","a":"Sula","lat":43.3847,"lng":19.0731,"tz":"Europe/Podgorica","p":995}]},"16":{"name":"16","name_local":"16","cities":[{"id":"3193044","n":"Podgorica","a":"Podgorica","lat":42.4412,"lng":19.2631,"tz":"Europe/Podgorica","p":236852},{"id":"3194928","n":"Mojanovići","a":"Mojanovici","lat":42.3417,"lng":19.2214,"tz":"Europe/Podgorica","p":1800},{"id":"3200326","n":"Goričani","a":"Goricani","lat":42.3322,"lng":19.2119,"tz":"Europe/Podgorica","p":1205},{"id":"3195390","n":"Mataguži","a":"Mataguzi","lat":42.3236,"lng":19.2728,"tz":"Europe/Podgorica","p":1132},{"id":"3204177","n":"Bijelo Polje","a":"Bijelo Polje","lat":42.3031,"lng":19.1981,"tz":"Europe/Podgorica","p":765},{"id":"3203616","n":"Botun","a":"Botun","lat":42.385,"lng":19.2,"tz":"Europe/Podgorica","p":559},{"id":"3189885","n":"Stijena","a":"Stijena","lat":42.5194,"lng":19.2581,"tz":"Europe/Podgorica","p":540},{"id":"3201461","n":"Donji Kokoti","a":"Donji Kokoti","lat":42.4011,"lng":19.1972,"tz":"Europe/Podgorica","p":523},{"id":"3202023","n":"Dinoša","a":"Dinosa","lat":42.4186,"lng":19.3389,"tz":"Europe/Podgorica","p":510}]},"07":{"name":"07","name_local":"07","cities":[{"id":"3202194","n":"Danilovgrad","a":"Danilovgrad","lat":42.5538,"lng":19.1461,"tz":"Europe/Podgorica","p":5208},{"id":"3190178","n":"Spuž","a":"Spuz","lat":42.515,"lng":19.195,"tz":"Europe/Podgorica","p":1241},{"id":"3202270","n":"Ćurilac","a":"Curilac","lat":42.5347,"lng":19.1175,"tz":"Europe/Podgorica","p":571},{"id":"3199632","n":"Grbe","a":"Grbe","lat":42.5,"lng":19.1958,"tz":"Europe/Podgorica","p":510}]},"18":{"name":"18","name_local":"18","cities":[{"id":"3191222","n":"Šavnik","a":"Savnik","lat":42.9569,"lng":19.0961,"tz":"Europe/Podgorica","p":633}]},"10":{"name":"10","name_local":"10","cities":[{"id":"3201903","n":"Dobrota","a":"Dobrota","lat":42.4542,"lng":18.7683,"tz":"Europe/Podgorica","p":5435},{"id":"3197538","n":"Kotor","a":"Kotor","lat":42.4207,"lng":18.7682,"tz":"Europe/Podgorica","p":5345},{"id":"3191631","n":"Risan","a":"Risan","lat":42.515,"lng":18.6956,"tz":"Europe/Podgorica","p":2083},{"id":"3192576","n":"Prčanj","a":"Prcanj","lat":42.4575,"lng":18.7422,"tz":"Europe/Podgorica","p":1244},{"id":"3194654","n":"Muo","a":"Muo","lat":42.4317,"lng":18.7575,"tz":"Europe/Podgorica","p":645},{"id":"3193504","n":"Perast","a":"Perast","lat":42.4869,"lng":18.6992,"tz":"Europe/Podgorica","p":551},{"id":"3318253","n":"Škaljari","a":"Skaljari","lat":42.4186,"lng":18.7664,"tz":"Europe/Podgorica","p":543}]},"13":{"name":"13","name_local":"13","cities":[{"id":"3193228","n":"Plav","a":"Plav","lat":42.5969,"lng":19.9442,"tz":"Europe/Podgorica","p":3615},{"id":"3192330","n":"Prnjavor","a":"Prnjavor","lat":42.5981,"lng":19.9506,"tz":"Europe/Podgorica","p":965}]},"15":{"name":"15","name_local":"15","cities":[{"id":"3193131","n":"Plužine","a":"Pluzine","lat":43.1521,"lng":18.839,"tz":"Europe/Podgorica","p":1494}]},"05":{"name":"05","name_local":"05","cities":[{"id":"3203106","n":"Budva","a":"Budva","lat":42.2872,"lng":18.8392,"tz":"Europe/Podgorica","p":18000},{"id":"3193413","n":"Petrovac na Moru","a":"Petrovac na Moru","lat":42.2056,"lng":18.9425,"tz":"Europe/Podgorica","p":1485}]},"06":{"name":"06","name_local":"06","cities":[{"id":"3202641","n":"Cetinje","a":"Cetinje","lat":42.3906,"lng":18.9142,"tz":"Europe/Podgorica","p":15137},{"id":"3194478","n":"Njeguši","a":"Njegusi","lat":42.4339,"lng":18.8102,"tz":"Europe/Podgorica","p":517}]},"11":{"name":"11","name_local":"11","cities":[{"id":"3194926","n":"Mojkovac","a":"Mojkovac","lat":42.9604,"lng":19.5833,"tz":"Europe/Podgorica","p":4120}]},"00":{"name":"00","name_local":"00","cities":[{"id":"3196540","n":"Lipci","a":"Lipci","lat":42.4972,"lng":18.6581,"tz":"Europe/Podgorica","p":1200},{"id":"3204388","n":"Bečići","a":"Becici","lat":42.2839,"lng":18.8692,"tz":"Europe/Podgorica","p":850}]},"09":{"name":"09","name_local":"09","cities":[{"id":"3197896","n":"Kolašin","a":"Kolasin","lat":42.8223,"lng":19.5165,"tz":"Europe/Podgorica","p":2989}]},"03":{"name":"03","name_local":"03","cities":[{"id":"3199071","n":"Berane","a":"Berane","lat":42.8433,"lng":19.8728,"tz":"Europe/Podgorica","p":11073}]},"08":{"name":"08","name_local":"08","cities":[{"id":"3199394","n":"Herceg Novi","a":"Herceg Novi","lat":42.4531,"lng":18.5375,"tz":"Europe/Podgorica","p":19536},{"id":"3199161","n":"Igalo","a":"Igalo","lat":42.4601,"lng":18.5065,"tz":"Europe/Podgorica","p":3754},{"id":"3204214","n":"Bijela","a":"Bijela","lat":42.4533,"lng":18.6556,"tz":"Europe/Podgorica","p":2395},{"id":"3202096","n":"Ðenovići","a":"Denovici","lat":42.4369,"lng":18.6022,"tz":"Europe/Podgorica","p":772},{"id":"3204511","n":"Baošići","a":"Baosici","lat":42.4425,"lng":18.63,"tz":"Europe/Podgorica","p":603}]},"22":{"name":"22","name_local":"22","cities":[{"id":"3199463","n":"Gusinje","a":"Gusinje","lat":42.5619,"lng":19.8339,"tz":"Europe/Podgorica","p":1673}]},"25":{"name":"25","name_local":"25","cities":[{"id":"3200422","n":"Golubovci","a":"Golubovci","lat":42.3352,"lng":19.231,"tz":"Europe/Podgorica","p":3110}]},"04":{"name":"04","name_local":"04","cities":[{"id":"3204176","n":"Bijelo Polje","a":"Bijelo Polje","lat":43.0383,"lng":19.7476,"tz":"Europe/Podgorica","p":15400},{"id":"3204472","n":"Barice","a":"Barice","lat":43.0875,"lng":19.485,"tz":"Europe/Podgorica","p":518}]},"01":{"name":"01","name_local":"01","cities":[{"id":"3204816","n":"Andrijevica","a":"Andrijevica","lat":42.7339,"lng":19.7919,"tz":"Europe/Podgorica","p":1073}]},"23":{"name":"23","name_local":"23","cities":[{"id":"3220594","n":"Petnjica","a":"Petnjica","lat":42.9097,"lng":19.9636,"tz":"Europe/Podgorica","p":0}]}}}