{"country":"MH","name":"Marshall Islands","name_zh":"马绍尔群岛","admin1s":{"180":{"name":"180","name_local":"180","cities":[{"id":"2080115","n":"Likiep","a":"Likiep","lat":9.8251,"lng":169.3107,"tz":"Pacific/Majuro","p":482}]},"120":{"name":"120","name_local":"120","cities":[{"id":"2080422","n":"Jabor","a":"Jabor","lat":5.921,"lng":169.6433,"tz":"Pacific/Majuro","p":1200}]},"030":{"name":"030","name_local":"030","cities":[{"id":"2080970","n":"Ailuk","a":"Ailuk","lat":10.2197,"lng":169.9797,"tz":"Pacific/Majuro","p":451}]},"190":{"name":"190","name_local":"190","cities":[{"id":"2113779","n":"Majuro","a":"Majuro","lat":7.0897,"lng":171.3803,"tz":"Pacific/Majuro","p":25400}]},"300":{"name":"300","name_local":"300","cities":[{"id":"4039539","n":"Taroa","a":"Taroa","lat":8.7058,"lng":171.2275,"tz":"Pacific/Majuro","p":0}]},"150":{"name":"150","name_local":"150","cities":[{"id":"7304467","n":"Ebaye","a":"Ebaye","lat":8.7748,"lng":167.7392,"tz":"Pacific/Kwajalein","p":15000}]},"090":{"name":"090","name_local":"090","cities":[{"id":"7306511","n":"Enewetak","a":"Enewetak","lat":11.3474,"lng":162.3373,"tz":"Pacific/Majuro","p":0}]},"080":{"name":"080","name_local":"080","cities":[{"id":"7306512","n":"Ebon","a":"Ebon","lat":4.582,"lng":168.6964,"tz":"Pacific/Majuro","p":714}]},"050":{"name":"050","name_local":"050","cities":[{"id":"7306513","n":"Aur","a":"Aur","lat":8.1499,"lng":171.1687,"tz":"Pacific/Majuro","p":438}]},"040":{"name":"040","name_local":"040","cities":[{"id":"7306514","n":"Arno","a":"Arno","lat":7.0669,"lng":171.5541,"tz":"Pacific/Majuro","p":2068}]},"010":{"name":"010","name_local":"010","cities":[{"id":"7306515","n":"Airuk","a":"Airuk","lat":7.2772,"lng":168.8203,"tz":"Pacific/Majuro","p":0}]},"320":{"name":"320","name_local":"320","cities":[{"id":"7306516","n":"Mili","a":"Mili","lat":6.0815,"lng":171.735,"tz":"Pacific/Majuro","p":854}]},"160":{"name":"160","name_local":"160","cities":[{"id":"7306517","n":"Lae","a":"Lae","lat":8.9222,"lng":166.2634,"tz":"Pacific/Majuro","p":319}]},"410":{"name":"410","name_local":"410","cities":[{"id":"7306518","n":"Utrik","a":"Utrik","lat":11.2278,"lng":169.8474,"tz":"Pacific/Majuro","p":409}]},"390":{"name":"390","name_local":"390","cities":[{"id":"7306519","n":"Ujae","a":"Ujae","lat":8.9322,"lng":165.7642,"tz":"Pacific/Majuro","p":448}]},"350":{"name":"350","name_local":"350","cities":[{"id":"7306520","n":"Rongelap","a":"Rongelap","lat":11.1635,"lng":166.8941,"tz":"Pacific/Majuro","p":19}]},"340":{"name":"340","name_local":"340","cities":[{"id":"7306521","n":"Loen","a":"Loen","lat":7.7601,"lng":168.2307,"tz":"Pacific/Majuro","p":0}]},"330":{"name":"330","name_local":"330","cities":[{"id":"7306522","n":"Namdrik","a":"Namdrik","lat":5.5994,"lng":168.1028,"tz":"Pacific/Majuro","p":814}]},"310":{"name":"310","name_local":"310","cities":[{"id":"7306523","n":"Mejit","a":"Mejit","lat":10.2753,"lng":170.8646,"tz":"Pacific/Majuro","p":300}]},"170":{"name":"170","name_local":"170","cities":[{"id":"7306524","n":"Lib","a":"Lib","lat":8.3122,"lng":167.3766,"tz":"Pacific/Majuro","p":115}]},"140":{"name":"140","name_local":"140","cities":[{"id":"7306525","n":"Kili","a":"Kili","lat":5.6439,"lng":169.1211,"tz":"Pacific/Majuro","p":602}]},"110":{"name":"110","name_local":"110","cities":[{"id":"7306526","n":"Jabat","a":"Jabat","lat":7.75,"lng":168.9751,"tz":"Pacific/Kwajalein","p":112}]},"430":{"name":"430","name_local":"430","cities":[{"id":"7306528","n":"Wotje","a":"Wotje","lat":9.4543,"lng":170.2367,"tz":"Pacific/Majuro","p":880}]},"420":{"name":"420","name_local":"420","cities":[{"id":"7306529","n":"Wotho","a":"Wotho","lat":10.1657,"lng":166.0102,"tz":"Pacific/Majuro","p":160}]}}}