{"country":"MV","name":"Maldives","name_zh":"马尔代夫","admin1s":{"01":{"name":"01","name_local":"01","cities":[{"id":"1282256","n":"Hithadhoo","a":"Hithadhoo","lat":-0.6,"lng":73.0833,"tz":"Indian/Maldives","p":9927},{"id":"1281980","n":"Meedhoo","a":"Meedhoo","lat":-0.5833,"lng":73.2333,"tz":"Indian/Maldives","p":1726}]},"38":{"name":"38","name_local":"38","cities":[{"id":"1282027","n":"Male","a":"Male","lat":4.1752,"lng":73.5092,"tz":"Indian/Maldives","p":103693},{"id":"6930996","n":"Hulhumale","a":"Hulhumale","lat":4.2117,"lng":73.5401,"tz":"Indian/Maldives","p":5000},{"id":"11777962","n":"Maafushi","a":"Maafushi","lat":3.9423,"lng":73.4907,"tz":"Indian/Maldives","p":3000},{"id":"11103468","n":"Guraidhoo","a":"Guraidhoo","lat":3.9005,"lng":73.4662,"tz":"Indian/Maldives","p":1800}]},"10346475":{"name":"10346475","name_local":"10346475","cities":[{"id":"1337605","n":"Mahibadhoo","a":"Mahibadhoo","lat":3.7571,"lng":72.9689,"tz":"Indian/Maldives","p":2156}]},"31":{"name":"31","name_local":"31","cities":[{"id":"1337606","n":"Eydhafushi","a":"Eydhafushi","lat":5.1033,"lng":73.0708,"tz":"Indian/Maldives","p":2808},{"id":"8410622","n":"Open Stage","a":"Open Stage","lat":5.1053,"lng":73.0712,"tz":"Indian/Maldives","p":1258}]},"32":{"name":"32","name_local":"32","cities":[{"id":"1337607","n":"Kudahuvadhoo","a":"Kudahuvadhoo","lat":2.6707,"lng":72.8944,"tz":"Indian/Maldives","p":1562},{"id":"7910627","n":"Buruni","a":"Buruni","lat":2.5591,"lng":73.1075,"tz":"Indian/Maldives","p":577}]},"34":{"name":"34","name_local":"34","cities":[{"id":"1337609","n":"Viligili","a":"Viligili","lat":0.7591,"lng":73.433,"tz":"Indian/Maldives","p":2925}]},"35":{"name":"35","name_local":"35","cities":[{"id":"1337610","n":"Thinadhoo","a":"Thinadhoo","lat":0.5306,"lng":72.9997,"tz":"Indian/Maldives","p":6376},{"id":"12196228","n":"Vaadhoo","a":"Vaadhoo","lat":0.2267,"lng":73.2726,"tz":"Indian/Maldives","p":1471},{"id":"12128611","n":"Gadhdhoo","a":"Gadhdhoo","lat":0.2902,"lng":73.4565,"tz":"Indian/Maldives","p":0}]},"42":{"name":"42","name_local":"42","cities":[{"id":"1337611","n":"Fuvahmulah","a":"Fuvahmulah","lat":-0.2988,"lng":73.424,"tz":"Indian/Maldives","p":11140}]},"36":{"name":"36","name_local":"36","cities":[{"id":"1337612","n":"Dhihdhoo","a":"Dhihdhoo","lat":6.8874,"lng":73.114,"tz":"Indian/Maldives","p":3039}]},"37":{"name":"37","name_local":"37","cities":[{"id":"1337613","n":"Kulhudhuffushi","a":"Kulhudhuffushi","lat":6.6221,"lng":73.07,"tz":"Indian/Maldives","p":9500}]},"05":{"name":"05","name_local":"05","cities":[{"id":"7874641","n":"Fonadhoo","a":"Fonadhoo","lat":1.8324,"lng":73.5026,"tz":"Indian/Maldives","p":1773},{"id":"1337615","n":"Hithadhoo","a":"Hithadhoo","lat":1.7967,"lng":73.3882,"tz":"Indian/Maldives","p":683}]},"39":{"name":"39","name_local":"39","cities":[{"id":"1337616","n":"Naifaru","a":"Naifaru","lat":5.4444,"lng":73.3657,"tz":"Indian/Maldives","p":5044}]},"41":{"name":"41","name_local":"41","cities":[{"id":"1337617","n":"Muli","a":"Muli","lat":2.9217,"lng":73.5811,"tz":"Indian/Maldives","p":1008}]},"43":{"name":"43","name_local":"43","cities":[{"id":"1337618","n":"Manadhoo","a":"Manadhoo","lat":5.7669,"lng":73.4136,"tz":"Indian/Maldives","p":1580},{"id":"12088818","n":"Maafaru","a":"Maafaru","lat":5.8308,"lng":73.4794,"tz":"Indian/Maldives","p":700}]},"44":{"name":"44","name_local":"44","cities":[{"id":"1337619","n":"Un’goofaaru","a":"Un'goofaaru","lat":5.6681,"lng":73.0302,"tz":"Indian/Maldives","p":1575}]},"45":{"name":"45","name_local":"45","cities":[{"id":"1337620","n":"Funadhoo","a":"Funadhoo","lat":6.1509,"lng":73.2901,"tz":"Indian/Maldives","p":2900}]},"46":{"name":"46","name_local":"46","cities":[{"id":"7910632","n":"Vilufushi","a":"Vilufushi","lat":2.5031,"lng":73.3086,"tz":"Indian/Maldives","p":2077},{"id":"7931878","n":"Guraidhoo","a":"Guraidhoo","lat":2.3247,"lng":73.3185,"tz":"Indian/Maldives","p":1800},{"id":"7911024","n":"Madifushi","a":"Madifushi","lat":2.3558,"lng":73.3547,"tz":"Indian/Maldives","p":1110},{"id":"1337622","n":"Veymandoo","a":"Veymandoo","lat":2.1877,"lng":73.0956,"tz":"Indian/Maldives","p":1100},{"id":"7931877","n":"Diyamigili","a":"Diyamigili","lat":2.3405,"lng":73.3388,"tz":"Indian/Maldives","p":763}]},"47":{"name":"47","name_local":"47","cities":[{"id":"1337623","n":"Felidhoo","a":"Felidhoo","lat":3.4718,"lng":73.547,"tz":"Indian/Maldives","p":541}]},"33":{"name":"33","name_local":"33","cities":[{"id":"12494177","n":"Nilandhoo","a":"Nilandhoo","lat":3.0567,"lng":72.89,"tz":"Indian/Maldives","p":0}]}}}