{"country":"NR","name":"Nauru","name_zh":"瑙鲁","admin1s":{"01":{"name":"01","name_local":"01","cities":[{"id":"7626485","n":"Arijejen","a":"Arijejen","lat":-0.5254,"lng":166.9125,"tz":"Pacific/Nauru","p":2381},{"id":"2110419","n":"Yangor","a":"Yangor","lat":-0.5354,"lng":166.9105,"tz":"Pacific/Nauru","p":0}]},"13":{"name":"13","name_local":"13","cities":[{"id":"2110421","n":"Uaboe","a":"Uaboe","lat":-0.5139,"lng":166.9238,"tz":"Pacific/Nauru","p":330}]},"05":{"name":"05","name_local":"05","cities":[{"id":"2110427","n":"Baiti","a":"Baiti","lat":-0.508,"lng":166.9295,"tz":"Pacific/Nauru","p":810}]},"10":{"name":"10","name_local":"10","cities":[{"id":"2110433","n":"Ijuw","a":"Ijuw","lat":-0.521,"lng":166.9581,"tz":"Pacific/Nauru","p":180}]},"04":{"name":"04","name_local":"04","cities":[{"id":"2110447","n":"Anibare","a":"Anibare","lat":-0.5279,"lng":166.9525,"tz":"Pacific/Nauru","p":0}]},"02":{"name":"02","name_local":"02","cities":[{"id":"2110450","n":"Anabar","a":"Anabar","lat":-0.5084,"lng":166.9533,"tz":"Pacific/Nauru","p":378}]},"14":{"name":"14","name_local":"14","cities":[{"id":"7626461","n":"Yaren","a":"Yaren","lat":-0.5508,"lng":166.9252,"tz":"Pacific/Nauru","p":1100}]},"06":{"name":"06","name_local":"06","cities":[{"id":"11695309","n":"Boe","a":"Boe","lat":-0.541,"lng":166.913,"tz":"Pacific/Nauru","p":950}]},"11":{"name":"11","name_local":"11","cities":[{"id":"11695310","n":"Menen","a":"Menen","lat":-0.5454,"lng":166.9487,"tz":"Pacific/Nauru","p":1400}]},"08":{"name":"08","name_local":"08","cities":[{"id":"12129637","n":"Denigomodu","a":"Denigomodu","lat":-0.5257,"lng":166.9126,"tz":"Pacific/Nauru","p":1804}]}}}