{"country":"OM","name":"Oman","name_zh":"阿曼","admin1s":{"04":{"name":"04","name_local":"04","cities":[{"id":"286245","n":"Sur","a":"Sur","lat":22.5667,"lng":59.5289,"tz":"Asia/Muscat","p":71152}]},"11":{"name":"11","name_local":"11","cities":[{"id":"286647","n":"Şaḩam","a":"Saham","lat":24.1722,"lng":56.8886,"tz":"Asia/Muscat","p":140000},{"id":"286282","n":"Sohar","a":"Sohar","lat":24.3474,"lng":56.7094,"tz":"Asia/Muscat","p":108274},{"id":"288955","n":"As Suwayq","a":"As Suwayq","lat":23.8494,"lng":57.4386,"tz":"Asia/Muscat","p":107143},{"id":"289199","n":"Al Khābūrah","a":"Al Khaburah","lat":23.9714,"lng":57.0931,"tz":"Asia/Muscat","p":50223},{"id":"286402","n":"Shināş","a":"Shinas","lat":24.7426,"lng":56.467,"tz":"Asia/Muscat","p":48009},{"id":"289174","n":"Liwá","a":"Liwa","lat":24.5308,"lng":56.563,"tz":"Asia/Muscat","p":26372}]},"01":{"name":"01","name_local":"01","cities":[{"id":"286987","n":"Nizwá","a":"Nizwa","lat":22.9333,"lng":57.5333,"tz":"Asia/Muscat","p":72076},{"id":"288899","n":"Bahlā’","a":"Bahla'","lat":22.9789,"lng":57.3047,"tz":"Asia/Muscat","p":54338},{"id":"286293","n":"Sufālat Samā’il","a":"Sufalat Sama'il","lat":23.3167,"lng":58.0167,"tz":"Asia/Muscat","p":47718},{"id":"287814","n":"Izkī","a":"Izki","lat":22.9333,"lng":57.7667,"tz":"Asia/Muscat","p":36203},{"id":"288721","n":"Bidbid","a":"Bidbid","lat":23.4079,"lng":58.1283,"tz":"Asia/Muscat","p":21188},{"id":"289433","n":"Adam","a":"Adam","lat":22.3793,"lng":57.5272,"tz":"Asia/Muscat","p":17283}]},"08":{"name":"08","name_local":"08","cities":[{"id":"286621","n":"Şalālah","a":"Salalah","lat":17.015,"lng":54.0924,"tz":"Asia/Muscat","p":163140},{"id":"8549596","n":"Al Mazyūnah","a":"Al Mazyunah","lat":17.8384,"lng":52.6604,"tz":"Asia/Muscat","p":0}]},"06":{"name":"06","name_local":"06","cities":[{"id":"287286","n":"Muscat","a":"Muscat","lat":23.5841,"lng":58.4078,"tz":"Asia/Muscat","p":797000},{"id":"288967","n":"Seeb","a":"Seeb","lat":23.6703,"lng":58.1891,"tz":"Asia/Muscat","p":470878},{"id":"288764","n":"Bawshar","a":"Bawshar","lat":23.5777,"lng":58.3998,"tz":"Asia/Muscat","p":383257}]},"07":{"name":"07","name_local":"07","cities":[{"id":"287614","n":"Khasab","a":"Khasab","lat":26.1799,"lng":56.2477,"tz":"Asia/Muscat","p":17904},{"id":"288507","n":"Dib Dibba","a":"Dib Dibba","lat":26.1978,"lng":56.2578,"tz":"Asia/Muscat","p":5000},{"id":"291586","n":"Madḩā’ al Jadīdah","a":"Madha' al Jadidah","lat":25.2834,"lng":56.3328,"tz":"Asia/Muscat","p":2260}]},"09":{"name":"09","name_local":"09","cities":[{"id":"287830","n":"‘Ibrī","a":"'Ibri","lat":23.2257,"lng":56.5157,"tz":"Asia/Muscat","p":163473},{"id":"411849","n":"Yanqul","a":"Yanqul","lat":23.5864,"lng":56.5397,"tz":"Asia/Muscat","p":16599}]},"12":{"name":"12","name_local":"12","cities":[{"id":"287832","n":"Ibrā’","a":"Ibra'","lat":22.6906,"lng":58.5334,"tz":"Asia/Muscat","p":25265},{"id":"288902","n":"Badīyah","a":"Badiyah","lat":22.45,"lng":58.8,"tz":"Asia/Muscat","p":18479},{"id":"289142","n":"Al Qābil","a":"Al Qabil","lat":22.571,"lng":58.6947,"tz":"Asia/Muscat","p":14008}]},"03":{"name":"03","name_local":"03","cities":[{"id":"287939","n":"Haymā’","a":"Hayma'","lat":19.9593,"lng":56.2758,"tz":"Asia/Muscat","p":1294}]},"02":{"name":"02","name_local":"02","cities":[{"id":"289011","n":"Rustaq","a":"Rustaq","lat":23.3908,"lng":57.4244,"tz":"Asia/Muscat","p":120000},{"id":"288789","n":"Barkā’","a":"Barka'","lat":23.6787,"lng":57.886,"tz":"Asia/Muscat","p":81647},{"id":"412084","n":"Bayt al ‘Awābī","a":"Bayt al `Awabi","lat":23.3032,"lng":57.5246,"tz":"Asia/Muscat","p":10711}]},"10":{"name":"10","name_local":"10","cities":[{"id":"289317","n":"Al Buraymī","a":"Al Buraymi","lat":24.2509,"lng":55.7931,"tz":"Asia/Muscat","p":73670},{"id":"12470176","n":"Al Wadan","a":"Al Wadan","lat":23.6237,"lng":55.5635,"tz":"Asia/Dubai","p":1000}]}}}