{"country":"PG","name":"Papua New Guinea","name_zh":"巴布亚新几内亚","admin1s":{"11":{"name":"11","name_local":"11","cities":[{"id":"2083537","n":"Wewak","a":"Wewak","lat":-3.5496,"lng":143.6323,"tz":"Pacific/Port_Moresby","p":18230},{"id":"2100933","n":"Ambunti","a":"Ambunti","lat":-4.2172,"lng":142.8183,"tz":"Pacific/Port_Moresby","p":2073},{"id":"2100763","n":"Angoram Village","a":"Angoram Village","lat":-4.0518,"lng":144.0728,"tz":"Pacific/Port_Moresby","p":0}]},"14":{"name":"14","name_local":"14","cities":[{"id":"2092740","n":"Lae","a":"Lae","lat":-6.7233,"lng":146.9961,"tz":"Pacific/Port_Moresby","p":76255},{"id":"2098869","n":"Bulolo","a":"Bulolo","lat":-7.2036,"lng":146.6401,"tz":"Pacific/Port_Moresby","p":16042},{"id":"2083653","n":"Wau","a":"Wau","lat":-7.342,"lng":146.724,"tz":"Pacific/Port_Moresby","p":14629},{"id":"2097418","n":"Finschhafen","a":"Finschhafen","lat":-6.604,"lng":147.848,"tz":"Pacific/Port_Moresby","p":1054}]},"19":{"name":"19","name_local":"19","cities":[{"id":"2084246","n":"Wabag","a":"Wabag","lat":-5.4912,"lng":143.7215,"tz":"Pacific/Port_Moresby","p":3958},{"id":"2088143","n":"Porgera","a":"Porgera","lat":-5.463,"lng":143.148,"tz":"Pacific/Port_Moresby","p":1578},{"id":"2092705","n":"Laiagam","a":"Laiagam","lat":-5.3311,"lng":143.7905,"tz":"Pacific/Port_Moresby","p":921}]},"18":{"name":"18","name_local":"18","cities":[{"id":"2084442","n":"Vanimo","a":"Vanimo","lat":-2.6837,"lng":141.302,"tz":"Pacific/Port_Moresby","p":11204},{"id":"2101169","n":"Aitape","a":"Aitape","lat":-3.137,"lng":142.3491,"tz":"Pacific/Port_Moresby","p":5547}]},"21":{"name":"21","name_local":"21","cities":[{"id":"2085772","n":"Tari","a":"Tari","lat":-5.845,"lng":142.9467,"tz":"Pacific/Port_Moresby","p":8186}]},"10":{"name":"10","name_local":"10","cities":[{"id":"2093685","n":"Kokopo","a":"Kokopo","lat":-4.3432,"lng":152.2687,"tz":"Pacific/Port_Moresby","p":26273},{"id":"2087894","n":"Rabaul","a":"Rabaul","lat":-4.2004,"lng":152.163,"tz":"Pacific/Port_Moresby","p":8074}]},"20":{"name":"20","name_local":"20","cities":[{"id":"2088122","n":"Port Moresby","a":"Port Moresby","lat":-9.4772,"lng":147.1509,"tz":"Pacific/Port_Moresby","p":283733}]},"04":{"name":"04","name_local":"04","cities":[{"id":"2088163","n":"Popondetta","a":"Popondetta","lat":-8.7654,"lng":148.2325,"tz":"Pacific/Port_Moresby","p":28198},{"id":"2093691","n":"Kokoda","a":"Kokoda","lat":-8.8778,"lng":147.7364,"tz":"Pacific/Port_Moresby","p":6199}]},"07":{"name":"07","name_local":"07","cities":[{"id":"2100633","n":"Arawa","a":"Arawa","lat":-6.2298,"lng":155.566,"tz":"Pacific/Bougainville","p":40266},{"id":"2094027","n":"Kieta","a":"Kieta","lat":-6.2146,"lng":155.6325,"tz":"Pacific/Bougainville","p":3611},{"id":"2088659","n":"Panguna","a":"Panguna","lat":-6.3164,"lng":155.4848,"tz":"Pacific/Bougainville","p":2916},{"id":"2098923","n":"Buin","a":"Buin","lat":-6.7486,"lng":155.6915,"tz":"Pacific/Bougainville","p":750},{"id":"8714539","n":"Buka","a":"Buka","lat":-5.4326,"lng":154.671,"tz":"Pacific/Bougainville","p":0}]},"06":{"name":"06","name_local":"06","cities":[{"id":"2098329","n":"Daru","a":"Daru","lat":-9.0779,"lng":143.2089,"tz":"Pacific/Port_Moresby","p":15214},{"id":"2093846","n":"Kiunga","a":"Kiunga","lat":-6.1219,"lng":141.2906,"tz":"Pacific/Port_Moresby","p":11536},{"id":"2090495","n":"Morehead","a":"Morehead","lat":-8.7106,"lng":141.6367,"tz":"Pacific/Port_Moresby","p":2246},{"id":"2089137","n":"Olsobip","a":"Olsobip","lat":-5.3873,"lng":141.5167,"tz":"Pacific/Port_Moresby","p":1000}]},"16":{"name":"16","name_local":"16","cities":[{"id":"2090409","n":"Mount Hagen","a":"Mount Hagen","lat":-5.8575,"lng":144.2306,"tz":"Pacific/Port_Moresby","p":33623},{"id":"9881549","n":"Rauna","a":"Rauna","lat":-5.7359,"lng":144.2883,"tz":"Pacific/Port_Moresby","p":0}]},"22":{"name":"22","name_local":"22","cities":[{"id":"2090763","n":"Minj","a":"Minj","lat":-5.9075,"lng":144.6916,"tz":"Pacific/Port_Moresby","p":0},{"id":"2092952","n":"Kurumul","a":"Kurumul","lat":-5.855,"lng":144.6311,"tz":"Pacific/Port_Moresby","p":0}]},"05":{"name":"05","name_local":"05","cities":[{"id":"2090990","n":"Mendi","a":"Mendi","lat":-6.1475,"lng":143.6563,"tz":"Pacific/Port_Moresby","p":26252},{"id":"2095925","n":"Ialibu","a":"Ialibu","lat":-6.2821,"lng":143.9935,"tz":"Pacific/Port_Moresby","p":6915}]},"12":{"name":"12","name_local":"12","cities":[{"id":"2091996","n":"Madang","a":"Madang","lat":-5.2215,"lng":145.7869,"tz":"Pacific/Port_Moresby","p":27419}]},"13":{"name":"13","name_local":"13","cities":[{"id":"2092164","n":"Lorengau","a":"Lorengau","lat":-2.0341,"lng":147.2717,"tz":"Pacific/Port_Moresby","p":5806}]},"01":{"name":"01","name_local":"01","cities":[{"id":"2092807","n":"Kwikila","a":"Kwikila","lat":-9.8185,"lng":147.6597,"tz":"Pacific/Port_Moresby","p":0}]},"08":{"name":"08","name_local":"08","cities":[{"id":"2093059","n":"Kundiawa","a":"Kundiawa","lat":-6.0197,"lng":144.9692,"tz":"Pacific/Port_Moresby","p":9383}]},"17":{"name":"17","name_local":"17","cities":[{"id":"2093967","n":"Kimbe","a":"Kimbe","lat":-5.5508,"lng":150.1377,"tz":"Pacific/Port_Moresby","p":18847},{"id":"2094746","n":"Kandrian","a":"Kandrian","lat":-6.2066,"lng":149.5474,"tz":"Pacific/Port_Moresby","p":1014}]},"02":{"name":"02","name_local":"02","cities":[{"id":"2094144","n":"Kerema","a":"Kerema","lat":-7.9603,"lng":145.7728,"tz":"Pacific/Port_Moresby","p":5646},{"id":"2095746","n":"Ihu","a":"Ihu","lat":-7.8957,"lng":145.394,"tz":"Pacific/Port_Moresby","p":0}]},"15":{"name":"15","name_local":"15","cities":[{"id":"2094342","n":"Kavieng","a":"Kavieng","lat":-2.5734,"lng":150.7952,"tz":"Pacific/Port_Moresby","p":14490}]},"09":{"name":"09","name_local":"09","cities":[{"id":"2096742","n":"Goroka","a":"Goroka","lat":-6.085,"lng":145.3867,"tz":"Pacific/Port_Moresby","p":18503},{"id":"2095038","n":"Kainantu","a":"Kainantu","lat":-6.2887,"lng":145.8655,"tz":"Pacific/Port_Moresby","p":8509}]},"03":{"name":"03","name_local":"03","cities":[{"id":"2133990","n":"Alotau","a":"Alotau","lat":-10.3151,"lng":150.4574,"tz":"Pacific/Port_Moresby","p":10025},{"id":"2132606","n":"Samarai","a":"Samarai","lat":-10.6104,"lng":150.6621,"tz":"Pacific/Port_Moresby","p":1638}]}}}