{"country":"PW","name":"Palau","name_zh":"帕劳","admin1s":{"06":{"name":"06","name_local":"06","cities":[{"id":"1559446","n":"Koror","a":"Koror","lat":7.3398,"lng":134.4733,"tz":"Pacific/Palau","p":14000},{"id":"7732415","n":"Koror Town","a":"Koror Town","lat":7.3426,"lng":134.4789,"tz":"Pacific/Palau","p":12676},{"id":"1559814","n":"Medalaii Hamlet","a":"Medalaii Hamlet","lat":7.3439,"lng":134.4659,"tz":"Pacific/Palau","p":2284},{"id":"1559400","n":"Ngerbeched Hamlet","a":"Ngerbeched Hamlet","lat":7.3325,"lng":134.4762,"tz":"Pacific/Palau","p":1404},{"id":"1559513","n":"Ngerchemai Hamlet","a":"Ngerchemai Hamlet","lat":7.35,"lng":134.4889,"tz":"Pacific/Palau","p":1376},{"id":"1559350","n":"Ngermid Hamlet","a":"Ngermid Hamlet","lat":7.3398,"lng":134.5016,"tz":"Pacific/Palau","p":1045},{"id":"1559797","n":"Meyungs Hamlet","a":"Meyungs Hamlet","lat":7.3538,"lng":134.4596,"tz":"Pacific/Palau","p":938},{"id":"1559703","n":"Ngerekebesang Hamlet","a":"Ngerekebesang Hamlet","lat":7.3544,"lng":134.4465,"tz":"Pacific/Palau","p":693},{"id":"1559847","n":"Iyebukel Hamlet","a":"Iyebukel Hamlet","lat":7.3493,"lng":134.4859,"tz":"Pacific/Palau","p":640},{"id":"4038084","n":"Ngerkeseuaol Hamlet","a":"Ngerkeseuaol Hamlet","lat":7.343,"lng":134.4895,"tz":"Pacific/Palau","p":639},{"id":"1559694","n":"Meketii Hamlet","a":"Meketii Hamlet","lat":7.3471,"lng":134.483,"tz":"Pacific/Palau","p":637},{"id":"1559484","n":"Idid Hamlet","a":"Idid Hamlet","lat":7.343,"lng":134.4837,"tz":"Pacific/Palau","p":537},{"id":"1559769","n":"Ikelau Hamlet","a":"Ikelau Hamlet","lat":7.3414,"lng":134.482,"tz":"Pacific/Palau","p":511}]},"08":{"name":"08","name_local":"08","cities":[{"id":"1559543","n":"Ulimang","a":"Ulimang","lat":7.6242,"lng":134.6421,"tz":"Pacific/Palau","p":581}]},"07":{"name":"07","name_local":"07","cities":[{"id":"1559804","n":"Melekeok Village","a":"Melekeok Village","lat":7.4957,"lng":134.6367,"tz":"Pacific/Palau","p":271},{"id":"8063361","n":"Ngerulmud","a":"Ngerulmud","lat":7.5008,"lng":134.6238,"tz":"Pacific/Palau","p":1}]},"11":{"name":"11","name_local":"11","cities":[{"id":"1559820","n":"Ngereklmadel","a":"Ngereklmadel","lat":7.4883,"lng":134.4856,"tz":"Pacific/Palau","p":0}]},"13":{"name":"13","name_local":"13","cities":[{"id":"1559864","n":"Imeong Hamlet","a":"Imeong Hamlet","lat":7.5313,"lng":134.5271,"tz":"Pacific/Palau","p":132}]},"12":{"name":"12","name_local":"12","cities":[{"id":"4036778","n":"Ngchesar Hamlet","a":"Ngchesar Hamlet","lat":7.4693,"lng":134.6099,"tz":"Pacific/Palau","p":300}]},"14":{"name":"14","name_local":"14","cities":[{"id":"4038014","n":"Ngerkeai","a":"Ngerkeai","lat":7.5546,"lng":134.6361,"tz":"Pacific/Palau","p":223}]},"09":{"name":"09","name_local":"09","cities":[{"id":"4038170","n":"Mengellang","a":"Mengellang","lat":7.6957,"lng":134.6305,"tz":"Pacific/Palau","p":488}]},"03":{"name":"03","name_local":"03","cities":[{"id":"4038282","n":"Angaur State","a":"Angaur State","lat":6.906,"lng":134.13,"tz":"Pacific/Palau","p":188}]},"04":{"name":"04","name_local":"04","cities":[{"id":"7670730","n":"Tobi Village","a":"Tobi Village","lat":3.0049,"lng":131.1217,"tz":"Pacific/Palau","p":44}]},"16":{"name":"16","name_local":"16","cities":[{"id":"7670816","n":"Sonsorol Village","a":"Sonsorol Village","lat":5.3261,"lng":132.2194,"tz":"Pacific/Palau","p":30}]},"05":{"name":"05","name_local":"05","cities":[{"id":"7670994","n":"Kayangel","a":"Kayangel","lat":8.0823,"lng":134.7173,"tz":"Pacific/Palau","p":188}]},"15":{"name":"15","name_local":"15","cities":[{"id":"7671223","n":"Kloulklubed","a":"Kloulklubed","lat":7.0419,"lng":134.2556,"tz":"Pacific/Palau","p":702}]},"02":{"name":"02","name_local":"02","cities":[{"id":"7701549","n":"Ngetkib","a":"Ngetkib","lat":7.3645,"lng":134.5148,"tz":"Pacific/Palau","p":62}]},"01":{"name":"01","name_local":"01","cities":[{"id":"7732276","n":"Ngchemiangel","a":"Ngchemiangel","lat":7.4461,"lng":134.4768,"tz":"Pacific/Palau","p":270}]},"10":{"name":"10","name_local":"10","cities":[{"id":"7732297","n":"Ngardmau","a":"Ngardmau","lat":7.6099,"lng":134.5744,"tz":"Pacific/Palau","p":221}]}}}