{"country":"SC","name":"Seychelles","name_zh":"塞舌尔","admin1s":{"26":{"name":"26","name_local":"26","cities":[{"id":"241131","n":"Victoria","a":"Victoria","lat":-4.62,"lng":55.455,"tz":"Indian/Mahe","p":22881},{"id":"13527028","n":"English River","a":"English River","lat":-4.6136,"lng":55.4547,"tz":"Indian/Mahe","p":4236}]},"23":{"name":"23","name_local":"23","cities":[{"id":"241150","n":"Takamaka","a":"Takamaka","lat":-4.7667,"lng":55.5,"tz":"Indian/Mahe","p":2580}]},"27":{"name":"27","name_local":"27","cities":[{"id":"241214","n":"Port Glaud","a":"Port Glaud","lat":-4.6626,"lng":55.4184,"tz":"Indian/Mahe","p":3243}]},"24":{"name":"24","name_local":"24","cities":[{"id":"241257","n":"Grand'Anse","a":"Grand'Anse","lat":-4.6667,"lng":55.4667,"tz":"Indian/Mahe","p":4140}]},"25":{"name":"25","name_local":"25","cities":[{"id":"241303","n":"La Digue","a":"La Digue","lat":-4.3554,"lng":55.8353,"tz":"Indian/Mahe","p":3934},{"id":"11103219","n":"La Passe","a":"La Passe","lat":-4.3481,"lng":55.8327,"tz":"Indian/Mahe","p":0}]},"11":{"name":"11","name_local":"11","cities":[{"id":"241395","n":"Cascade","a":"Cascade","lat":-4.6692,"lng":55.4995,"tz":"Indian/Mahe","p":7263}]},"10":{"name":"10","name_local":"10","cities":[{"id":"13527034","n":"Belombre","a":"Belombre","lat":-4.6181,"lng":55.4127,"tz":"Indian/Mahe","p":4829},{"id":"241423","n":"Bel Ombre","a":"Bel Ombre","lat":-4.6167,"lng":55.4167,"tz":"Indian/Mahe","p":4163}]},"08":{"name":"08","name_local":"08","cities":[{"id":"241427","n":"Beau Vallon","a":"Beau Vallon","lat":-4.6209,"lng":55.4301,"tz":"Indian/Mahe","p":4142}]},"05":{"name":"05","name_local":"05","cities":[{"id":"241443","n":"Anse Royale","a":"Anse Royale","lat":-4.7333,"lng":55.5167,"tz":"Indian/Mahe","p":3818}]},"02":{"name":"02","name_local":"02","cities":[{"id":"13527032","n":"Anse Royale","a":"Anse Royale","lat":-4.7377,"lng":55.5033,"tz":"Indian/Mahe","p":5046},{"id":"241448","n":"Anse Boileau","a":"Anse Boileau","lat":-4.7167,"lng":55.4833,"tz":"Indian/Mahe","p":4183}]},"07":{"name":"07","name_local":"07","cities":[{"id":"6691843","n":"Baie Sainte Anne","a":"Baie Sainte Anne","lat":-4.32,"lng":55.7534,"tz":"Indian/Mahe","p":5063}]},"14":{"name":"14","name_local":"14","cities":[{"id":"8629285","n":"Grand'Anse","a":"Grand'Anse","lat":-4.3311,"lng":55.7221,"tz":"Indian/Mahe","p":4344}]},"01":{"name":"01","name_local":"01","cities":[{"id":"10792304","n":"Anse aux Pins","a":"Anse aux Pins","lat":-4.686,"lng":55.522,"tz":"Indian/Mahe","p":4685}]},"20":{"name":"20","name_local":"20","cities":[{"id":"10793687","n":"Pointe La Rue","a":"Pointe La Rue","lat":-4.6732,"lng":55.5131,"tz":"Indian/Mahe","p":3750}]},"06":{"name":"06","name_local":"06","cities":[{"id":"10793745","n":"Baie Lazare","a":"Baie Lazare","lat":-4.7497,"lng":55.4754,"tz":"Indian/Mahe","p":4795}]},"12":{"name":"12","name_local":"12","cities":[{"id":"11395546","n":"Glacis","a":"Glacis","lat":-4.5758,"lng":55.4368,"tz":"Indian/Mahe","p":4496}]},"09":{"name":"09","name_local":"09","cities":[{"id":"13527029","n":"Mont Fleuri","a":"Mont Fleuri","lat":-4.6269,"lng":55.4543,"tz":"Indian/Mahe","p":4055},{"id":"11694889","n":"Bel Air","a":"Bel Air","lat":-4.6295,"lng":55.4455,"tz":"Indian/Mahe","p":3129}]},"17":{"name":"17","name_local":"17","cities":[{"id":"11694891","n":"Mont Buxton","a":"Mont Buxton","lat":-4.6164,"lng":55.4482,"tz":"Indian/Mahe","p":3383}]},"22":{"name":"22","name_local":"22","cities":[{"id":"11694895","n":"Saint Louis","a":"Saint Louis","lat":-4.6246,"lng":55.4444,"tz":"Indian/Mahe","p":3692}]},"30":{"name":"30","name_local":"30","cities":[{"id":"11694896","n":"Roche Caïman","a":"Roche Caiman","lat":-4.6401,"lng":55.4688,"tz":"Indian/Mahe","p":3828}]},"":{"name":"","name_local":"","cities":[{"id":"12718739","n":"Perseverance","a":"Perseverance","lat":-4.6044,"lng":55.4643,"tz":"Indian/Mahe","p":6209}]},"18":{"name":"18","name_local":"18","cities":[{"id":"13527030","n":"Plaisance","a":"Plaisance","lat":-4.6409,"lng":55.4618,"tz":"Indian/Mahe","p":4622}]},"29":{"name":"29","name_local":"29","cities":[{"id":"13527031","n":"Les Mamelles","a":"Les Mamelles","lat":-4.6458,"lng":55.468,"tz":"Indian/Mahe","p":2719}]}}}