{"country":"SM","name":"San Marino","name_zh":"圣马力诺","admin1s":{"09":{"name":"09","name_local":"09","cities":[{"id":"3166645","n":"Serravalle","a":"Serravalle","lat":43.969,"lng":12.4817,"tz":"Europe/San_Marino","p":9258},{"id":"3177564","n":"Dogana","a":"Dogana","lat":43.9803,"lng":12.4905,"tz":"Europe/San_Marino","p":7000},{"id":"3177260","n":"Falciano","a":"Falciano","lat":43.9833,"lng":12.5,"tz":"Europe/San_Marino","p":1000},{"id":"6941147","n":"Fiorina","a":"Fiorina","lat":43.958,"lng":12.4769,"tz":"Europe/San_Marino","p":889}]},"07":{"name":"07","name_local":"07","cities":[{"id":"3168070","n":"San Marino","a":"San Marino","lat":43.9367,"lng":12.4464,"tz":"Europe/San_Marino","p":4500},{"id":"7302190","n":"Murata","a":"Murata","lat":43.9201,"lng":12.4515,"tz":"Europe/San_Marino","p":1580}]},"02":{"name":"02","name_local":"02","cities":[{"id":"3170472","n":"Poggio di Chiesanuova","a":"Poggio di Chiesanuova","lat":43.9045,"lng":12.4214,"tz":"Europe/San_Marino","p":951}]},"08":{"name":"08","name_local":"08","cities":[{"id":"3172906","n":"Monte Giardino","a":"Monte Giardino","lat":43.9088,"lng":12.482,"tz":"Europe/San_Marino","p":910}]},"05":{"name":"05","name_local":"05","cities":[{"id":"3176966","n":"Fiorentino","a":"Fiorentino","lat":43.91,"lng":12.4574,"tz":"Europe/San_Marino","p":2510}]},"04":{"name":"04","name_local":"04","cities":[{"id":"3177299","n":"Faetano","a":"Faetano","lat":43.9283,"lng":12.498,"tz":"Europe/San_Marino","p":1177}]},"03":{"name":"03","name_local":"03","cities":[{"id":"3177542","n":"Domagnano","a":"Domagnano","lat":43.9496,"lng":12.4683,"tz":"Europe/San_Marino","p":3161}]},"06":{"name":"06","name_local":"06","cities":[{"id":"8199071","n":"Valdragone","a":"Valdragone","lat":43.9402,"lng":12.4562,"tz":"Europe/San_Marino","p":6983},{"id":"3181793","n":"Borgo Maggiore","a":"Borgo Maggiore","lat":43.9419,"lng":12.4474,"tz":"Europe/San_Marino","p":6424},{"id":"8199067","n":"Cailungo","a":"Cailungo","lat":43.9519,"lng":12.4536,"tz":"Europe/San_Marino","p":2076}]},"01":{"name":"01","name_local":"01","cities":[{"id":"3183500","n":"Acquaviva","a":"Acquaviva","lat":43.9459,"lng":12.4185,"tz":"Europe/San_Marino","p":1530}]}}}