{"country":"SR","name":"Suriname","name_zh":"苏里南","admin1s":{"14":{"name":"14","name_local":"14","cities":[{"id":"3383427","n":"Nieuw Nickerie","a":"Nieuw Nickerie","lat":5.9261,"lng":-56.973,"tz":"America/Paramaribo","p":13143},{"id":"3382783","n":"Wageningen","a":"Wageningen","lat":5.7601,"lng":-56.6652,"tz":"America/Paramaribo","p":4145},{"id":"13535826","n":"Van Pettenpolder","a":"Van Pettenpolder","lat":5.9283,"lng":-56.993,"tz":"America/Paramaribo","p":966}]},"12":{"name":"12","name_local":"12","cities":[{"id":"3382867","n":"Totness","a":"Totness","lat":5.8762,"lng":-56.3257,"tz":"America/Paramaribo","p":1685}]},"16":{"name":"16","name_local":"16","cities":[{"id":"3383330","n":"Paramaribo","a":"Paramaribo","lat":5.8664,"lng":-55.1668,"tz":"America/Paramaribo","p":223757},{"id":"3384562","n":"Blauwgrond","a":"Blauwgrond","lat":5.8434,"lng":-55.1193,"tz":"America/Paramaribo","p":31483},{"id":"3383188","n":"Rainville","a":"Rainville","lat":5.8344,"lng":-55.1377,"tz":"America/Paramaribo","p":22747},{"id":"3384242","n":"Flora","a":"Flora","lat":5.8,"lng":-55.2,"tz":"America/Paramaribo","p":19538},{"id":"8220924","n":"Welgelegen","a":"Welgelegen","lat":5.8421,"lng":-55.2186,"tz":"America/Paramaribo","p":19304},{"id":"8220838","n":"Munder Buiten","a":"Munder Buiten","lat":5.8412,"lng":-55.1825,"tz":"America/Paramaribo","p":17234},{"id":"8220949","n":"Beekhuizen","a":"Beekhuizen","lat":5.8057,"lng":-55.1737,"tz":"America/Paramaribo","p":17185},{"id":"8220851","n":"Tammenga","a":"Tammenga","lat":5.8289,"lng":-55.202,"tz":"America/Paramaribo","p":15819},{"id":"3383694","n":"Livorno","a":"Livorno","lat":5.7805,"lng":-55.1811,"tz":"America/Paramaribo","p":8209}]},"15":{"name":"15","name_local":"15","cities":[{"id":"3383384","n":"Onverwacht","a":"Onverwacht","lat":5.5898,"lng":-55.1946,"tz":"America/Paramaribo","p":2105}]},"11":{"name":"11","name_local":"11","cities":[{"id":"3383527","n":"Meerzorg","a":"Meerzorg","lat":5.8079,"lng":-55.1408,"tz":"America/Paramaribo","p":12405},{"id":"3383434","n":"Nieuw Amsterdam","a":"Nieuw Amsterdam","lat":5.8857,"lng":-55.0887,"tz":"America/Paramaribo","p":4935},{"id":"3383570","n":"Mariënburg","a":"Marienburg","lat":5.8772,"lng":-55.0432,"tz":"America/Paramaribo","p":4427}]},"13":{"name":"13","name_local":"13","cities":[{"id":"3383494","n":"Moengo","a":"Moengo","lat":5.6141,"lng":-54.4012,"tz":"America/Paramaribo","p":7074},{"id":"3384792","n":"Albina","a":"Albina","lat":5.4979,"lng":-54.0552,"tz":"America/Paramaribo","p":3985}]},"19":{"name":"19","name_local":"19","cities":[{"id":"3383714","n":"Lelydorp","a":"Lelydorp","lat":5.7,"lng":-55.2333,"tz":"America/Paramaribo","p":18223}]},"17":{"name":"17","name_local":"17","cities":[{"id":"3384125","n":"Groningen","a":"Groningen","lat":5.8,"lng":-55.4667,"tz":"America/Paramaribo","p":3216}]},"10":{"name":"10","name_local":"10","cities":[{"id":"3384482","n":"Brokopondo","a":"Brokopondo","lat":5.0559,"lng":-54.9804,"tz":"America/Paramaribo","p":14662},{"id":"3384475","n":"Brownsweg","a":"Brownsweg","lat":5.0043,"lng":-55.1533,"tz":"America/Paramaribo","p":2696}]},"18":{"name":"18","name_local":"18","cities":[{"id":"6692148","n":"Benzdorp (Monte Hermon)","a":"Benzdorp (Monte Hermon)","lat":3.6721,"lng":-54.1035,"tz":"America/Paramaribo","p":600}]}}}