{"country":"SS","name":"South Sudan","name_zh":"南苏丹","admin1s":{"04":{"name":"04","name_local":"04","cities":[{"id":"367927","n":"Rumbek","a":"Rumbek","lat":6.8062,"lng":29.6774,"tz":"Africa/Juba","p":32083},{"id":"363594","n":"Yirol","a":"Yirol","lat":6.5525,"lng":30.4981,"tz":"Africa/Juba","p":11650}]},"01":{"name":"01","name_local":"01","cities":[{"id":"373303","n":"Juba","a":"Juba","lat":4.8517,"lng":31.5825,"tz":"Africa/Juba","p":450000},{"id":"363619","n":"Yei","a":"Yei","lat":4.0944,"lng":30.6764,"tz":"Africa/Juba","p":260720}]},"10":{"name":"10","name_local":"10","cities":[{"id":"363656","n":"Yambio","a":"Yambio","lat":4.5708,"lng":28.3942,"tz":"Africa/Juba","p":40382},{"id":"370457","n":"Maridi","a":"Maridi","lat":4.9167,"lng":29.4694,"tz":"Africa/Juba","p":14224},{"id":"366444","n":"Tambura","a":"Tambura","lat":5.6,"lng":27.4667,"tz":"Africa/Juba","p":9500}]},"05":{"name":"05","name_local":"05","cities":[{"id":"363807","n":"Winejok","a":"Winejok","lat":9.0122,"lng":27.5708,"tz":"Africa/Juba","p":300000},{"id":"364367","n":"Aweil","a":"Aweil","lat":8.7619,"lng":27.3919,"tz":"Africa/Juba","p":38745}]},"09":{"name":"09","name_local":"09","cities":[{"id":"363885","n":"Wau","a":"Wau","lat":7.7011,"lng":27.9897,"tz":"Africa/Juba","p":127384},{"id":"373130","n":"Kafia Kingi","a":"Kafia Kingi","lat":9.2735,"lng":24.417,"tz":"Africa/Juba","p":16000},{"id":"368246","n":"Raja","a":"Raja","lat":8.4675,"lng":25.6783,"tz":"Africa/Juba","p":3700}]},"02":{"name":"02","name_local":"02","cities":[{"id":"375495","n":"Pajok","a":"Pajok","lat":3.8651,"lng":32.4821,"tz":"Africa/Juba","p":49000},{"id":"365742","n":"Torit","a":"Torit","lat":4.4118,"lng":32.5705,"tz":"Africa/Juba","p":20048},{"id":"372884","n":"Kapoeta","a":"Kapoeta","lat":4.7722,"lng":33.5914,"tz":"Africa/Juba","p":7042}]},"08":{"name":"08","name_local":"08","cities":[{"id":"371712","n":"Kuacjok","a":"Kuacjok","lat":8.3028,"lng":27.98,"tz":"Africa/Juba","p":78000},{"id":"374739","n":"Gogrial","a":"Gogrial","lat":8.5332,"lng":28.1004,"tz":"Africa/Juba","p":44600},{"id":"365763","n":"Tonj","a":"Tonj","lat":7.2739,"lng":28.6775,"tz":"Africa/Juba","p":17338}]},"07":{"name":"07","name_local":"07","cities":[{"id":"370737","n":"Malakal","a":"Malakal","lat":9.5334,"lng":31.6605,"tz":"Africa/Juba","p":160765},{"id":"372299","n":"Kodok","a":"Kodok","lat":9.8889,"lng":32.1094,"tz":"Africa/Juba","p":7709}]},"06":{"name":"06","name_local":"06","cities":[{"id":"371466","n":"Leer","a":"Leer","lat":8.3031,"lng":30.1406,"tz":"Africa/Juba","p":17827},{"id":"377472","n":"Bentiu","a":"Bentiu","lat":9.2572,"lng":29.7983,"tz":"Africa/Juba","p":7653}]},"03":{"name":"03","name_local":"03","cities":[{"id":"377241","n":"Bor","a":"Bor","lat":6.2089,"lng":31.5586,"tz":"Africa/Juba","p":26782}]}}}