{"country":"TL","name":"Timor-Leste","name_zh":"东帝汶","admin1s":{"VI":{"name":"VI","name_local":"VI","cities":[{"id":"1622471","n":"Viqueque","a":"Viqueque","lat":-8.8575,"lng":126.3647,"tz":"Asia/Dili","p":6078},{"id":"8643023","n":"Irabin de Baixo","a":"Irabin de Baixo","lat":-8.7486,"lng":126.6969,"tz":"Asia/Dili","p":2454}]},"CO":{"name":"CO","name_local":"CO","cities":[{"id":"1626459","n":"Suai","a":"Suai","lat":-9.3129,"lng":125.2565,"tz":"Asia/Dili","p":21539},{"id":"1623886","n":"Tilomar","a":"Tilomar","lat":-9.34,"lng":125.1128,"tz":"Asia/Dili","p":7885},{"id":"1944181","n":"Fohorem","a":"Fohorem","lat":-9.2836,"lng":125.0894,"tz":"Asia/Dili","p":4086}]},"MF":{"name":"MF","name_local":"MF","cities":[{"id":"1628926","n":"Same","a":"Same","lat":-9.0042,"lng":125.6486,"tz":"Asia/Dili","p":7500}]},"OE":{"name":"OE","name_local":"OE","cities":[{"id":"1632533","n":"Pante Makasar","a":"Pante Makasar","lat":-9.2,"lng":124.3833,"tz":"Asia/Dili","p":4730},{"id":"1637754","n":"Lifau","a":"Lifau","lat":-9.2028,"lng":124.3088,"tz":"Asia/Dili","p":1938},{"id":"8629790","n":"Lifau","a":"Lifau","lat":-9.2042,"lng":124.3145,"tz":"Asia/Dili","p":1938}]},"DI":{"name":"DI","name_local":"DI","cities":[{"id":"1645457","n":"Dili","a":"Dili","lat":-8.5586,"lng":125.5736,"tz":"Asia/Dili","p":150000},{"id":"1635814","n":"Atauro","a":"Atauro","lat":-8.2667,"lng":125.6014,"tz":"Asia/Dili","p":9274},{"id":"1943194","n":"Dare","a":"Dare","lat":-8.5927,"lng":125.571,"tz":"Asia/Dili","p":4052},{"id":"1635288","n":"Metinaro","a":"Metinaro","lat":-8.5301,"lng":125.7416,"tz":"Asia/Dili","p":4000}]},"LI":{"name":"LI","name_local":"LI","cities":[{"id":"1637730","n":"Likisá","a":"Likisa","lat":-8.5875,"lng":125.3419,"tz":"Asia/Dili","p":19000},{"id":"1635826","n":"Maubara","a":"Maubara","lat":-8.6119,"lng":125.2061,"tz":"Asia/Dili","p":16300}]},"MT":{"name":"MT","name_local":"MT","cities":[{"id":"1649996","n":"Barique","a":"Barique","lat":-8.8333,"lng":126.0667,"tz":"Asia/Dili","p":5438},{"id":"1636526","n":"Manatutu","a":"Manatutu","lat":-8.5114,"lng":126.0131,"tz":"Asia/Dili","p":1924}]},"BO":{"name":"BO","name_local":"BO","cities":[{"id":"1636670","n":"Maliana","a":"Maliana","lat":-8.9917,"lng":125.2197,"tz":"Asia/Dili","p":22000}]},"BA":{"name":"BA","name_local":"BA","cities":[{"id":"1649539","n":"Baukau","a":"Baukau","lat":-8.4757,"lng":126.4563,"tz":"Asia/Dili","p":16000},{"id":"1943235","n":"Venilale","a":"Venilale","lat":-8.6431,"lng":126.3783,"tz":"Asia/Dili","p":16000}]},"AN":{"name":"AN","name_local":"AN","cities":[{"id":"1651810","n":"Ainaro","a":"Ainaro","lat":-8.9924,"lng":125.5082,"tz":"Asia/Dili","p":12000}]},"AL":{"name":"AL","name_local":"AL","cities":[{"id":"1651816","n":"Aileu","a":"Aileu","lat":-8.7281,"lng":125.5664,"tz":"Asia/Dili","p":17356},{"id":"1943145","n":"Aissirimou","a":"Aissirimou","lat":-8.7261,"lng":125.5715,"tz":"Asia/Dili","p":2192}]},"LA":{"name":"LA","name_local":"LA","cities":[{"id":"1937274","n":"Lospalos","a":"Lospalos","lat":-8.5217,"lng":126.9983,"tz":"Asia/Dili","p":17186},{"id":"1942993","n":"Tutuala","a":"Tutuala","lat":-8.3938,"lng":127.2554,"tz":"Asia/Dili","p":3707}]},"ER":{"name":"ER","name_local":"ER","cities":[{"id":"1942811","n":"Gleno","a":"Gleno","lat":-8.7239,"lng":125.4361,"tz":"Asia/Dili","p":8133}]}}}