{"country":"TT","name":"Trinidad and Tobago","name_zh":"特立尼达和多巴哥","admin1s":{"TUP":{"name":"TUP","name_local":"TUP","cities":[{"id":"3573576","n":"Tunapuna","a":"Tunapuna","lat":10.6524,"lng":-61.3888,"tz":"America/Port_of_Spain","p":17758},{"id":"3573989","n":"Paradise","a":"Paradise","lat":10.653,"lng":-61.363,"tz":"America/Port_of_Spain","p":15067},{"id":"3575039","n":"Arouca","a":"Arouca","lat":10.6288,"lng":-61.3349,"tz":"America/Port_of_Spain","p":12054}]},"CTT":{"name":"CTT","name_local":"CTT","cities":[{"id":"3574524","n":"Gasparillo","a":"Gasparillo","lat":10.317,"lng":-61.426,"tz":"America/Port_of_Spain","p":9925},{"id":"3574773","n":"Claxton Bay","a":"Claxton Bay","lat":10.3664,"lng":-61.4599,"tz":"America/Port_of_Spain","p":5679},{"id":"3574724","n":"Couva","a":"Couva","lat":10.4225,"lng":-61.4675,"tz":"America/Port_of_Spain","p":5178},{"id":"3573650","n":"Tabaquite","a":"Tabaquite","lat":10.3882,"lng":-61.297,"tz":"America/Port_of_Spain","p":3314},{"id":"3574895","n":"California","a":"California","lat":10.4092,"lng":-61.4729,"tz":"America/Port_of_Spain","p":3012},{"id":"3573638","n":"Talparo","a":"Talparo","lat":10.5,"lng":-61.2667,"tz":"America/Port_of_Spain","p":1661}]},"SIP":{"name":"SIP","name_local":"SIP","cities":[{"id":"3573681","n":"Siparia","a":"Siparia","lat":10.1453,"lng":-61.5074,"tz":"America/Port_of_Spain","p":8568}]},"11":{"name":"11","name_local":"11","cities":[{"id":"3573703","n":"Scarborough","a":"Scarborough","lat":11.1823,"lng":-60.7353,"tz":"America/Port_of_Spain","p":17000}]},"SGE":{"name":"SGE","name_local":"SGE","cities":[{"id":"3573732","n":"Sangre Grande","a":"Sangre Grande","lat":10.587,"lng":-61.1301,"tz":"America/Port_of_Spain","p":15968}]},"10":{"name":"10","name_local":"10","cities":[{"id":"3574116","n":"Mon Repos","a":"Mon Repos","lat":10.2798,"lng":-61.4459,"tz":"America/Port_of_Spain","p":56380},{"id":"3573738","n":"San Fernando","a":"San Fernando","lat":10.2797,"lng":-61.4684,"tz":"America/Port_of_Spain","p":55419},{"id":"3574194","n":"Marabella","a":"Marabella","lat":10.3062,"lng":-61.4467,"tz":"America/Port_of_Spain","p":26700}]},"03":{"name":"03","name_local":"03","cities":[{"id":"3573840","n":"Rio Claro","a":"Rio Claro","lat":10.3059,"lng":-61.1756,"tz":"America/Port_of_Spain","p":35650}]},"PRT":{"name":"PRT","name_local":"PRT","cities":[{"id":"3573882","n":"Princes Town","a":"Princes Town","lat":10.2718,"lng":-61.371,"tz":"America/Port_of_Spain","p":10000}]},"05":{"name":"05","name_local":"05","cities":[{"id":"3573890","n":"Port of Spain","a":"Port of Spain","lat":10.6667,"lng":-61.5189,"tz":"America/Port_of_Spain","p":49031},{"id":"3574069","n":"Mucurapo","a":"Mucurapo","lat":10.6625,"lng":-61.537,"tz":"America/Port_of_Spain","p":4342}]},"PTF":{"name":"PTF","name_local":"PTF","cities":[{"id":"3573899","n":"Point Fortin","a":"Point Fortin","lat":10.1741,"lng":-61.6841,"tz":"America/Port_of_Spain","p":19056}]},"DMN":{"name":"DMN","name_local":"DMN","cities":[{"id":"3574636","n":"Diego Martin","a":"Diego Martin","lat":10.7208,"lng":-61.5662,"tz":"America/Port_of_Spain","p":25370},{"id":"3573935","n":"Petit Valley","a":"Petit Valley","lat":10.6997,"lng":-61.5472,"tz":"America/Port_of_Spain","p":8140}]},"PED":{"name":"PED","name_local":"PED","cities":[{"id":"3573965","n":"Peñal","a":"Penal","lat":10.1667,"lng":-61.4667,"tz":"America/Port_of_Spain","p":12281},{"id":"3574659","n":"Debe","a":"Debe","lat":10.2085,"lng":-61.4527,"tz":"America/Port_of_Spain","p":3127}]},"SJL":{"name":"SJL","name_local":"SJL","cities":[{"id":"3574309","n":"Laventille","a":"Laventille","lat":10.6492,"lng":-61.4989,"tz":"America/Port_of_Spain","p":21000}]},"CHA":{"name":"CHA","name_local":"CHA","cities":[{"id":"3574810","n":"Chaguanas","a":"Chaguanas","lat":10.5167,"lng":-61.4167,"tz":"America/Port_of_Spain","p":67433}]},"01":{"name":"01","name_local":"01","cities":[{"id":"3575051","n":"Arima","a":"Arima","lat":10.6374,"lng":-61.2823,"tz":"America/Port_of_Spain","p":35000}]}}}